{"type":"FeatureCollection","features":[{"type":"Feature","geometry":{"type":"Point","coordinates":[-79.5344,9.0247]},"properties":{"location_name":"Ancón, Distrito de Panamá, Provincia de Panamá, Panamá","created_at":"2026-08-05"}},{"type":"Feature","geometry":{"type":"Point","coordinates":[76.7275,10.8055]},"properties":{"location_name":"IIT Palakkad Road, Kanjikode, Pudussery West, Kerala","body":"<p>Vanakkam</p>","created_at":"2026-08-05"}},{"type":"Feature","geometry":{"type":"Point","coordinates":[-84.4839,42.737]},"properties":{"location_name":"East Lansing, MI","created_at":"2026-07-23"}},{"type":"Feature","geometry":{"type":"Point","coordinates":[121.4737,31.2304]},"properties":{"location_name":"Shanghai, 上海市","created_at":"2026-07-22"}},{"type":"Feature","geometry":{"type":"Point","coordinates":[79.8588,6.9]},"properties":{"location_name":"University of Colombo, Cumaratunga Munidasawa Mw, Colombo","created_at":"2026-07-21"}},{"type":"Feature","geometry":{"type":"Point","coordinates":[6.7623,51.4344]},"properties":{"location_name":"Duisburg","created_at":"2026-07-19"}},{"type":"Feature","geometry":{"type":"Point","coordinates":[34.6553,31.8044]},"properties":{"location_name":"Ashdod, Israel","created_at":"2026-07-06"}},{"type":"Feature","geometry":{"type":"Point","coordinates":[-71.6137,-33.0445]},"properties":{"location_name":"Pontificia Universidad Católica de Valparaíso, Facultad de Ingeniería - Avenida Brasil, Valparaíso","body":"<p>Doctorado en Industria Inteligente</p>","created_at":"2026-07-02"}},{"type":"Feature","geometry":{"type":"Point","coordinates":[28.9784,41.0082]},"properties":{"location_name":"Istanbul, İstanbul","created_at":"2026-06-28"}},{"type":"Feature","geometry":{"type":"Point","coordinates":[139.6638,35.7075]},"properties":{"location_name":"Nakano, 東京都","created_at":"2026-06-27"}},{"type":"Feature","geometry":{"type":"Point","coordinates":[6.5665,53.2194]},"properties":{"location_name":"Groningen, Netherlands","body":"<p>Love it!</p>","created_at":"2026-06-24"}},{"type":"Feature","geometry":{"type":"Point","coordinates":[-106.6504,35.0844]},"properties":{"location_name":"Albuquerque, NM","body":"<p>I love the sunsets on the sandias</p>","created_at":"2026-06-13"}},{"type":"Feature","geometry":{"type":"Point","coordinates":[2.0877,49.0358]},"properties":{"location_name":"Institut de Recherche Criminelle de la Gendarmerie Nationale - IRCGN, Boulevard de l'Hautil, Cergy","created_at":"2026-06-12"}},{"type":"Feature","geometry":{"type":"Point","coordinates":[4.4272,51.8189]},"properties":{"location_name":"Oud-Beijerland","created_at":"2026-06-03"}},{"type":"Feature","geometry":{"type":"Point","coordinates":[18.0656,59.3327]},"properties":{"location_name":"Stockholm","created_at":"2026-05-27"}},{"type":"Feature","geometry":{"type":"Point","coordinates":[13.7674,45.6508]},"properties":{"location_name":"Trieste, Province of Trieste","body":"<p>University of Trieste</p>","created_at":"2026-05-13"}},{"type":"Feature","geometry":{"type":"Point","coordinates":[73.8518,18.4519]},"properties":{"location_name":"Ghevar Thali, Datta Nagar Road, Shriram Nagar, Katraj, Pune, Maharashtra","created_at":"2026-05-07"}},{"type":"Feature","geometry":{"type":"Point","coordinates":[22.9444,40.6401]},"properties":{"location_name":"Thessaloniki, Greece","body":"<p>Using Prosec GS8000 - [email removed]</p>","created_at":"2026-04-28"}},{"type":"Feature","geometry":{"type":"Point","coordinates":[21.7888,40.3006]},"properties":{"location_name":"Kozani","body":"<p>Newbie GPR (Prosec gs8000) operator struggling</p>","created_at":"2026-04-28"}},{"type":"Feature","geometry":{"type":"Point","coordinates":[103.9307,30.7529]},"properties":{"location_name":"中国四川省成都郫都区天润路电子科技大学清水河校区","created_at":"2026-04-24"}},{"type":"Feature","geometry":{"type":"Point","coordinates":[135.7681,35.0116]},"properties":{"location_name":"Kyoto, 京都府","created_at":"2026-04-21"}},{"type":"Feature","geometry":{"type":"Point","coordinates":[2.3574,48.847]},"properties":{"location_name":"4 Pl. Jussieu, Paris, France","created_at":"2026-04-14"}},{"type":"Feature","geometry":{"type":"Point","coordinates":[29.2063,41.0142]},"properties":{"location_name":"Dijitalpark Teknokent, Kirazlıdere, Çekmeköy/İstanbul","created_at":"2026-04-06"}},{"type":"Feature","geometry":{"type":"Point","coordinates":[-10.5282,28.4581]},"properties":{"location_name":"Aouint Yghomane, Morocco","body":"<p>cute</p>","created_at":"2026-03-18"}},{"type":"Feature","geometry":{"type":"Point","coordinates":[77.1278,28.9196]},"properties":{"location_name":"Rajiv Gandhi Education City, Sonipat, Seoli, Haryana, India","body":"<p>sending EM waves from India</p>","created_at":"2026-03-17"}},{"type":"Feature","geometry":{"type":"Point","coordinates":[77.0702,31.0166]},"properties":{"location_name":"Jaypee University of Information Technology, Waknaghat, Himachal Pradesh","body":"<p>Researchers and students from Jaypee University of Information Technology (JUIT), Waknaghat, Himachal Pradesh, welcome collaborations in computational science, artificial intelligence, and molecular simulation.</p><p>The university is committed to fostering interdisciplinary research and invites academic and industry partners to collaborate on projects involving simulation tools, data science, and high-performance computing.</p><p><br></p>","created_at":"2026-03-08"}},{"type":"Feature","geometry":{"type":"Point","coordinates":[77.1025,28.7041]},"properties":{"location_name":"Delhi","body":"<p>Sup, I literally have no clue</p>","created_at":"2026-03-04"}},{"type":"Feature","geometry":{"type":"Point","coordinates":[126.6311,45.7164]},"properties":{"location_name":"中国黑龙江省哈尔滨市南岗区 26, 东北林业大学第７门","created_at":"2026-03-04"}},{"type":"Feature","geometry":{"type":"Point","coordinates":[14.1913,40.9288]},"properties":{"location_name":"Giugliano in Campania, NA","created_at":"2026-03-02"}},{"type":"Feature","geometry":{"type":"Point","coordinates":[-69.9361,18.4626]},"properties":{"location_name":"Santo Domingo","created_at":"2026-02-24"}},{"type":"Feature","geometry":{"type":"Point","coordinates":[72.5801,23.105]},"properties":{"location_name":"Govind Nagar Society, ONGC Colony, Chandkheda, Ahmedabad, Gujarat","created_at":"2026-02-23"}},{"type":"Feature","geometry":{"type":"Point","coordinates":[72.5714,23.0225]},"properties":{"location_name":"Ahmedabad, Gujarat","created_at":"2026-02-23"}},{"type":"Feature","geometry":{"type":"Point","coordinates":[10.7313,59.9122]},"properties":{"location_name":"Oslo","body":"<p>Dammen Geo-Services AS https://www.d-geo.no</p>","created_at":"2026-02-17"}},{"type":"Feature","geometry":{"type":"Point","coordinates":[76.105,10.4203]},"properties":{"location_name":"Thriprayar, Kerala","body":"<p>നന്ദി </p>","created_at":"2026-02-09"}},{"type":"Feature","geometry":{"type":"Point","coordinates":[126.9071,35.1755]},"properties":{"location_name":"Chonnam National University, Yongbong-ro, Buk-gu, Gwangju","created_at":"2026-02-05"}},{"type":"Feature","geometry":{"type":"Point","coordinates":[80.5078,16.4649]},"properties":{"location_name":"SRM University AP, Mangalagiri Neerukonda Tadikonda Road, Mangalagiri, Andhra Pradesh","created_at":"2026-02-03"}},{"type":"Feature","geometry":{"type":"Point","coordinates":[77.4861,20.4841]},"properties":{"location_name":"Karanja-Lad, Maharashtra","body":"<p>I don't understand English.</p><p><br></p>","created_at":"2026-01-24"}},{"type":"Feature","geometry":{"type":"Point","coordinates":[144.961,-37.7983]},"properties":{"location_name":"The University of Melbourne, Parkville VIC","body":"<p>It's my first day, excited to use this!</p>","created_at":"2026-01-24"}},{"type":"Feature","geometry":{"type":"Point","coordinates":[-71.8937,45.4043]},"properties":{"location_name":"Sherbrooke, QC","created_at":"2026-01-15"}},{"type":"Feature","geometry":{"type":"Point","coordinates":[85.3222,27.7103]},"properties":{"location_name":"Kathmandu, Nepal","body":"<p>IYKYK, mountain high!</p>","created_at":"2026-01-07"}},{"type":"Feature","geometry":{"type":"Point","coordinates":[117.1504,34.2121]},"properties":{"location_name":"中国江苏省徐州市铜山区大学路中国矿业大学南湖校区（东南门）","created_at":"2026-01-07"}},{"type":"Feature","geometry":{"type":"Point","coordinates":[79.5909,13.7172]},"properties":{"location_name":"Yerpedu, Tirupati, Andhra Pradesh, India","created_at":"2026-01-06"}},{"type":"Feature","geometry":{"type":"Point","coordinates":[21.0122,52.2297]},"properties":{"location_name":"Warszawa","created_at":"2026-01-03"}},{"type":"Feature","geometry":{"type":"Point","coordinates":[-75.9208,45.2585]},"properties":{"location_name":"Stittsville, Ottawa, ON","created_at":"2025-12-27"}},{"type":"Feature","geometry":{"type":"Point","coordinates":[-8.4126,40.1865]},"properties":{"location_name":"Faculdade de Ciências e Tecnologia da Universidade de Coimbra, Coimbra","created_at":"2025-12-23"}},{"type":"Feature","geometry":{"type":"Point","coordinates":[17.1162,48.1441]},"properties":{"location_name":"Gamča, Grösslingová, Bratislava","created_at":"2025-12-20"}},{"type":"Feature","geometry":{"type":"Point","coordinates":[73.8786,18.5246]},"properties":{"location_name":"Pune, Maharashtra","body":"<p>HIII</p>","created_at":"2025-12-18"}},{"type":"Feature","geometry":{"type":"Point","coordinates":[46.5449,24.6404]},"properties":{"location_name":"ظهرة لبن، الرياض السعودية","body":"<p>i have a graduation project due to tomorrow</p>","created_at":"2025-12-13"}},{"type":"Feature","geometry":{"type":"Point","coordinates":[35.5018,33.8938]},"properties":{"location_name":"Beirut, Lebanon","body":"<p>Thank you for this library</p>","created_at":"2025-12-10"}},{"type":"Feature","geometry":{"type":"Point","coordinates":[129.7422,62.0397]},"properties":{"location_name":"Yakutsk","created_at":"2025-12-07"}},{"type":"Feature","geometry":{"type":"Point","coordinates":[98.9728,14.9681]},"properties":{"location_name":"Kanchanaburi, Thailand","body":"<p>Mahidol University, Kanchanaburi Campus</p>","created_at":"2025-11-24"}},{"type":"Feature","geometry":{"type":"Point","coordinates":[-73.4673,40.7765]},"properties":{"location_name":"Plainview, NY","created_at":"2025-11-18"}},{"type":"Feature","geometry":{"type":"Point","coordinates":[30.8025,26.8206]},"properties":{"location_name":"Egypt","body":"<p>flower </p><p><br></p>","created_at":"2025-11-16"}},{"type":"Feature","geometry":{"type":"Point","coordinates":[29.0253,41.1056]},"properties":{"location_name":"İstanbul Teknik Üniversitesi, Reşitpaşa, İTÜ Ayazağa Kampüsü, Sarıyer/İstanbul","body":"<p>I am designing my graduation project with gprmax -Görkem</p>","created_at":"2025-11-14"}},{"type":"Feature","geometry":{"type":"Point","coordinates":[77.888,29.8543]},"properties":{"location_name":"Roorkee, Uttarakhand","created_at":"2025-11-13"}},{"type":"Feature","geometry":{"type":"Point","coordinates":[-7.9898,31.6225]},"properties":{"location_name":"Marrakesh","created_at":"2025-11-08"}},{"type":"Feature","geometry":{"type":"Point","coordinates":[-71.8025,42.2628]},"properties":{"location_name":"Worcester, MA","created_at":"2025-11-06"}},{"type":"Feature","geometry":{"type":"Point","coordinates":[-96.0584,43.0072]},"properties":{"location_name":"Orange City, Iowa","created_at":"2025-11-06"}},{"type":"Feature","geometry":{"type":"Point","coordinates":[125.677,39.201]},"properties":{"location_name":"朝鲜平壤直辖市平壤平壤国际机场","created_at":"2025-10-30"}},{"type":"Feature","geometry":{"type":"Point","coordinates":[117.0239,36.6645]},"properties":{"location_name":"山东省济南市历下区泉城路商圈泉城路济南恒隆广场","created_at":"2025-10-30"}},{"type":"Feature","geometry":{"type":"Point","coordinates":[-3.9889,11.0887]},"properties":{"location_name":"Hauts-Bassins, Burkina Faso","created_at":"2025-10-26"}},{"type":"Feature","geometry":{"type":"Point","coordinates":[-8.4126,40.1865]},"properties":{"location_name":"FCTUC, Faculdade de Ciências e Tecnologia da Universidade de Coimbra, Coimbra","created_at":"2025-10-22"}},{"type":"Feature","geometry":{"type":"Point","coordinates":[-88.8965,13.7942]},"properties":{"location_name":"El Salvador","created_at":"2025-10-21"}},{"type":"Feature","geometry":{"type":"Point","coordinates":[-122.3328,47.6061]},"properties":{"location_name":"Seattle, WA","body":"<p>Testing</p>","created_at":"2025-10-19"}},{"type":"Feature","geometry":{"type":"Point","coordinates":[139.7515,35.6581]},"properties":{"location_name":"Minato, 東京都","created_at":"2025-10-18"}},{"type":"Feature","geometry":{"type":"Point","coordinates":[-41.8915,-19.0032]},"properties":{"location_name":"Brasil","body":"<p>oi</p>","created_at":"2025-10-01"}},{"type":"Feature","geometry":{"type":"Point","coordinates":[-52.7453,47.5556]},"properties":{"location_name":"St. John's, NL","created_at":"2025-09-26"}},{"type":"Feature","geometry":{"type":"Point","coordinates":[-56.1663,-34.9183]},"properties":{"location_name":"Facultad de Ingeniería - UdelaR, Avenue Julio Herrera y Reissig, Montevideo Montevideo Department","created_at":"2025-09-18"}},{"type":"Feature","geometry":{"type":"Point","coordinates":[-1.5536,47.2184]},"properties":{"location_name":"Nantes","created_at":"2025-09-07"}},{"type":"Feature","geometry":{"type":"Point","coordinates":[26.6432,38.3191]},"properties":{"location_name":"Izmir Institute of Technology IZTECH, İzmir Yüksek Teknoloji Enstitüsü, Gülbahçe, Urla/İzmir","created_at":"2025-08-27"}},{"type":"Feature","geometry":{"type":"Point","coordinates":[-106.5047,31.7732]},"properties":{"location_name":"University of Texas at El Paso, West University Avenue, El Paso, TX","created_at":"2025-08-14"}},{"type":"Feature","geometry":{"type":"Point","coordinates":[126.6334,45.747]},"properties":{"location_name":"Harbin Institute of Technology, 西大直街南岗区哈尔滨市黑龙江省中国","body":"<p>inter resting</p>","created_at":"2025-08-14"}},{"type":"Feature","geometry":{"type":"Point","coordinates":[114.4323,30.4591]},"properties":{"location_name":"中国湖北省武汉市江夏区武汉工程大学","created_at":"2025-08-05"}},{"type":"Feature","geometry":{"type":"Point","coordinates":[4.6278,43.6766]},"properties":{"location_name":"Arles","body":"<p>GEOPAT is an engineering office in applied geophysics</p>","created_at":"2025-07-28"}},{"type":"Feature","geometry":{"type":"Point","coordinates":[-7.1952,32.5069]},"properties":{"location_name":"البروج","body":"<p>سطات</p><p><br></p>","created_at":"2025-07-23"}},{"type":"Feature","geometry":{"type":"Point","coordinates":[121.5008,31.2831]},"properties":{"location_name":"中国上海市杨浦区赤峰路同济大学四平路校区","created_at":"2025-07-23"}},{"type":"Feature","geometry":{"type":"Point","coordinates":[-84.3885,33.7501]},"properties":{"location_name":"Atlanta, GA","created_at":"2025-07-13"}},{"type":"Feature","geometry":{"type":"Point","coordinates":[-83.9162,9.8638]},"properties":{"location_name":"Cartago Province, Cartago","created_at":"2025-07-07"}},{"type":"Feature","geometry":{"type":"Point","coordinates":[-71.6127,-33.0473]},"properties":{"location_name":"Valparaíso, Chile","created_at":"2025-07-07"}},{"type":"Feature","geometry":{"type":"Point","coordinates":[138.6719,-34.8637]},"properties":{"location_name":"Tea Tree Gully, SA, Australia","created_at":"2025-07-02"}},{"type":"Feature","geometry":{"type":"Point","coordinates":[114.1727,22.337]},"properties":{"location_name":"City University of Hong Kong (CityU), 达之路九龙塘香港","created_at":"2025-06-30"}},{"type":"Feature","geometry":{"type":"Point","coordinates":[35.8007,31.7428]},"properties":{"location_name":"الرشاد، مأدبا","created_at":"2025-06-28"}},{"type":"Feature","geometry":{"type":"Point","coordinates":[113.9328,22.5331]},"properties":{"location_name":"中国广东省深圳市南山区南海大道深圳大学","created_at":"2025-06-26"}},{"type":"Feature","geometry":{"type":"Point","coordinates":[116.347,39.9524]},"properties":{"location_name":"中国北京市海淀区北下关北京交通大学","created_at":"2025-06-23"}},{"type":"Feature","geometry":{"type":"Point","coordinates":[3.3619,7.1475]},"properties":{"location_name":"Abeokuta, Nigeria","created_at":"2025-06-22"}},{"type":"Feature","geometry":{"type":"Point","coordinates":[113.5766,23.3045]},"properties":{"location_name":"中国广东省广州市黄埔区未命名的道路","created_at":"2025-06-20"}},{"type":"Feature","geometry":{"type":"Point","coordinates":[-117.3755,33.9806]},"properties":{"location_name":"Riverside, CA","body":"<p>I'm excited to be an RF engineer!</p>","created_at":"2025-06-18"}},{"type":"Feature","geometry":{"type":"Point","coordinates":[-122.3707,48.2411]},"properties":{"location_name":"Stanwood, WA","created_at":"2025-06-10"}},{"type":"Feature","geometry":{"type":"Point","coordinates":[-72.5199,42.3732]},"properties":{"location_name":"Amherst, MA","body":"<p>SDP26!</p>","created_at":"2025-06-08"}},{"type":"Feature","geometry":{"type":"Point","coordinates":[28.8798,40.9867]},"properties":{"location_name":"Kartaltepe, Bitişik Bağlar Sk. No:26, Bakırköy/İstanbul, Türkiye","created_at":"2025-06-02"}},{"type":"Feature","geometry":{"type":"Point","coordinates":[2.0622,47.2372]},"properties":{"location_name":"Vierzon, France","body":"<p>tipe...</p>","created_at":"2025-06-01"}},{"type":"Feature","geometry":{"type":"Point","coordinates":[51.531,25.2854]},"properties":{"location_name":"Doha","created_at":"2025-05-22"}},{"type":"Feature","geometry":{"type":"Point","coordinates":[-98.7084,46.9105]},"properties":{"location_name":"Jamestown, ND","created_at":"2025-05-19"}},{"type":"Feature","geometry":{"type":"Point","coordinates":[10.7357,36.4513]},"properties":{"location_name":"Nabeul‎, Tunisia","body":"<p>I am Omar Mrabet</p>","created_at":"2025-05-19"}},{"type":"Feature","geometry":{"type":"Point","coordinates":[126.6487,45.7573]},"properties":{"location_name":"中国黑龙江省哈尔滨市南岗区","created_at":"2025-05-07"}},{"type":"Feature","geometry":{"type":"Point","coordinates":[11.8209,45.3662]},"properties":{"location_name":"Padova, Italy","body":"<p>Dept of Geosciences</p>","created_at":"2025-05-01"}},{"type":"Feature","geometry":{"type":"Point","coordinates":[10.721,59.9376]},"properties":{"location_name":"Department of Geosciences (UiO), Sem Sælands vei, Oslo","body":"<p>An essential resource for optimizing our simulations.</p><p>Alexandru Hegyi (Dept. of Geosciences, UiO) </p>","created_at":"2025-04-28"}},{"type":"Feature","geometry":{"type":"Point","coordinates":[-43.9988,-19.9388]},"properties":{"location_name":"CEFET-MG - Campus Nova Gameleira - Avenida Amazonas - Nova Gameleira, Belo Horizonte - MG","created_at":"2025-04-18"}},{"type":"Feature","geometry":{"type":"Point","coordinates":[103.6131,-1.6101]},"properties":{"location_name":"Jambi, Jambi City","created_at":"2025-04-17"}},{"type":"Feature","geometry":{"type":"Point","coordinates":[9.5375,33.8869]},"properties":{"location_name":"Tunisie","created_at":"2025-04-15"}},{"type":"Feature","geometry":{"type":"Point","coordinates":[120.9689,14.3464]},"properties":{"location_name":"Dasmariñas, Cavite, Philippines","created_at":"2025-04-14"}},{"type":"Feature","geometry":{"type":"Point","coordinates":[35.8479,32.557]},"properties":{"location_name":"مدرسة السيلة الثانوية للبنات، إربد","created_at":"2025-04-11"}},{"type":"Feature","geometry":{"type":"Point","coordinates":[-78.0623,-1.4998]},"properties":{"location_name":"Shell, Ecuador","body":"<p>Northumbria </p><p><br></p>","created_at":"2025-04-10"}},{"type":"Feature","geometry":{"type":"Point","coordinates":[-80.4151,37.2301]},"properties":{"location_name":"Blacksburg, VA","body":"<p>Hello from Virginia Tech :)</p>","created_at":"2025-04-09"}},{"type":"Feature","geometry":{"type":"Point","coordinates":[-71.8025,42.2628]},"properties":{"location_name":"Worcester, MA","created_at":"2025-04-08"}},{"type":"Feature","geometry":{"type":"Point","coordinates":[-71.8801,42.0501]},"properties":{"location_name":"Webster, MA","created_at":"2025-04-08"}},{"type":"Feature","geometry":{"type":"Point","coordinates":[74.2433,16.705]},"properties":{"location_name":"Kolhapur","body":"<p>hello gpr</p><p><br></p>","created_at":"2025-04-07"}},{"type":"Feature","geometry":{"type":"Point","coordinates":[-84.5499,33.9533]},"properties":{"location_name":"Marietta, GA","created_at":"2025-04-07"}},{"type":"Feature","geometry":{"type":"Point","coordinates":[55.7229,24.2232]},"properties":{"location_name":"Al Ain - Abu Dhabi","body":"<p>Ground Penetrating Radar synchronized with differential global positioning system</p>","created_at":"2025-04-05"}},{"type":"Feature","geometry":{"type":"Point","coordinates":[113.5767,22.2709]},"properties":{"location_name":"珠海市","created_at":"2025-04-04"}},{"type":"Feature","geometry":{"type":"Point","coordinates":[76.2074,10.3469]},"properties":{"location_name":"Irinjalakuda, Kerala","created_at":"2025-04-03"}},{"type":"Feature","geometry":{"type":"Point","coordinates":[126.6535,37.45]},"properties":{"location_name":"인천광역시 미추홀구 인하로 인하대학교 용현캠퍼스","created_at":"2025-04-02"}},{"type":"Feature","geometry":{"type":"Point","coordinates":[22.8016,37.5673]},"properties":{"location_name":"Ναύπλιο, Greece","created_at":"2025-04-01"}},{"type":"Feature","geometry":{"type":"Point","coordinates":[77.1387,28.699]},"properties":{"location_name":"Pitampura, Delhi","created_at":"2025-03-31"}},{"type":"Feature","geometry":{"type":"Point","coordinates":[14.1618,57.7826]},"properties":{"location_name":"Jönköping","created_at":"2025-03-27"}},{"type":"Feature","geometry":{"type":"Point","coordinates":[-110.9742,32.254]},"properties":{"location_name":"Tucson, AZ","created_at":"2025-03-26"}},{"type":"Feature","geometry":{"type":"Point","coordinates":[25.7904,31.9506]},"properties":{"location_name":"(31.950582317525722, 25.790382829885882)","created_at":"2025-03-26"}},{"type":"Feature","geometry":{"type":"Point","coordinates":[19.9379,50.0591]},"properties":{"location_name":"Kraków Old Town, Kraków","created_at":"2025-03-25"}},{"type":"Feature","geometry":{"type":"Point","coordinates":[-106.6504,35.0844]},"properties":{"location_name":"Albuquerque, NM","created_at":"2025-03-24"}},{"type":"Feature","geometry":{"type":"Point","coordinates":[106.8061,-6.2474]},"properties":{"location_name":"Jakarta Selatan, South Jakarta City, Jakarta","body":"<p>Universitas Pertamina</p>","created_at":"2025-03-18"}},{"type":"Feature","geometry":{"type":"Point","coordinates":[78.9629,20.5937]},"properties":{"location_name":"India","created_at":"2025-03-17"}},{"type":"Feature","geometry":{"type":"Point","coordinates":[-49.2652,-25.4269]},"properties":{"location_name":"Curitiba, PR","created_at":"2025-03-17"}},{"type":"Feature","geometry":{"type":"Point","coordinates":[-3.8676,40.3232]},"properties":{"location_name":"Móstoles","created_at":"2025-03-16"}},{"type":"Feature","geometry":{"type":"Point","coordinates":[112.5512,37.4212]},"properties":{"location_name":"Taigu, 晋中市山西省中国","created_at":"2025-03-16"}},{"type":"Feature","geometry":{"type":"Point","coordinates":[67.2371,25.1072]},"properties":{"location_name":"Karachi City","body":"<p>From numerical computing and mathematical equations to real-world implementation with gprMax modeling — just looking like a wow!</p>","created_at":"2025-03-16"}},{"type":"Feature","geometry":{"type":"Point","coordinates":[-76.9378,38.9897]},"properties":{"location_name":"College Park, MD","created_at":"2025-03-15"}},{"type":"Feature","geometry":{"type":"Point","coordinates":[105.8342,21.0278]},"properties":{"location_name":"Hanoi","body":"<p>Vietnam Petroleum Institute</p>","created_at":"2025-03-13"}},{"type":"Feature","geometry":{"type":"Point","coordinates":[108.9097,34.3744]},"properties":{"location_name":"中国陕西省西安市未央区天问路","body":"<p>Nice day </p>","created_at":"2025-03-11"}},{"type":"Feature","geometry":{"type":"Point","coordinates":[-1.7661,53.7915]},"properties":{"location_name":"University of Bradford, Richmond Road, Bradford","created_at":"2025-03-10"}},{"type":"Feature","geometry":{"type":"Point","coordinates":[80.2705,13.0843]},"properties":{"location_name":"Chennai, Tamil Nadu","created_at":"2025-03-08"}},{"type":"Feature","geometry":{"type":"Point","coordinates":[174.6506,-36.7967]},"properties":{"location_name":"Hobsonville, Auckland","created_at":"2025-03-07"}},{"type":"Feature","geometry":{"type":"Point","coordinates":[109.4898,36.5853]},"properties":{"location_name":"中国陕西省延安","created_at":"2025-03-06"}},{"type":"Feature","geometry":{"type":"Point","coordinates":[120.1616,33.3495]},"properties":{"location_name":"中国江苏省盐城市","created_at":"2025-03-06"}},{"type":"Feature","geometry":{"type":"Point","coordinates":[128.1178,35.1757]},"properties":{"location_name":"경상남도 진주","created_at":"2025-03-06"}},{"type":"Feature","geometry":{"type":"Point","coordinates":[14.4422,45.3271]},"properties":{"location_name":"Rijeka","created_at":"2025-03-05"}},{"type":"Feature","geometry":{"type":"Point","coordinates":[114.1694,22.3193]},"properties":{"location_name":"Hong Kong","created_at":"2025-03-04"}},{"type":"Feature","geometry":{"type":"Point","coordinates":[152.9112,-27.5294]},"properties":{"location_name":"1 Technology Court, Pullenvale QLD","created_at":"2025-03-03"}},{"type":"Feature","geometry":{"type":"Point","coordinates":[72.8777,19.076]},"properties":{"location_name":"Mumbai, Maharashtra","body":"<p>City of Dreams!!</p>","created_at":"2025-03-01"}},{"type":"Feature","geometry":{"type":"Point","coordinates":[-2.3573,51.6915]},"properties":{"location_name":"Dursley GL11","created_at":"2025-02-28"}},{"type":"Feature","geometry":{"type":"Point","coordinates":[-78.6871,43.9273]},"properties":{"location_name":"Liberty St N, Bowmanville, Ontario","body":"<p>Amazing Project!</p><p>The ability to use both Openmpi and CUDA makes gprMax very useful on modern HPC clusters.</p>","created_at":"2025-02-26"}},{"type":"Feature","geometry":{"type":"Point","coordinates":[78.4772,17.4065]},"properties":{"location_name":"Hyderabad, Telangana","created_at":"2025-02-21"}},{"type":"Feature","geometry":{"type":"Point","coordinates":[52.5836,29.5926]},"properties":{"location_name":"Shiraz, Fars Province, Iran","created_at":"2025-02-20"}},{"type":"Feature","geometry":{"type":"Point","coordinates":[100.4964,13.6513]},"properties":{"location_name":"KMUTT., Pracha Uthit Road, Bang Mot, Thung Khru, Bangkok","created_at":"2025-02-12"}},{"type":"Feature","geometry":{"type":"Point","coordinates":[35.2332,31.9522]},"properties":{"location_name":"Palestine","created_at":"2025-02-10"}},{"type":"Feature","geometry":{"type":"Point","coordinates":[-75.3492,40.0376]},"properties":{"location_name":"Villanova, PA","body":"<p>Villanova University</p>","created_at":"2025-02-06"}},{"type":"Feature","geometry":{"type":"Point","coordinates":[9.1824,45.4685]},"properties":{"location_name":"Milan, Metropolitan City of Milan","body":"<p>Hi !</p>","created_at":"2025-01-29"}},{"type":"Feature","geometry":{"type":"Point","coordinates":[79.0882,21.1458]},"properties":{"location_name":"Nagpur, Maharashtra","created_at":"2025-01-26"}},{"type":"Feature","geometry":{"type":"Point","coordinates":[21.0122,52.2297]},"properties":{"location_name":"Warszawa","created_at":"2025-01-21"}},{"type":"Feature","geometry":{"type":"Point","coordinates":[-1.2521,51.7523]},"properties":{"location_name":"Oxford, Oxfordshire, England, United Kingdom","created_at":"2025-01-19"}},{"type":"Feature","geometry":{"type":"Point","coordinates":[-0.6465,51.1495]},"properties":{"location_name":"Witley, Godalming","body":"<p>TRACE-SI</p><p><br></p>","created_at":"2025-01-14"}},{"type":"Feature","geometry":{"type":"Point","coordinates":[144.9639,-37.8083]},"properties":{"location_name":"RMIT University, La Trobe Street, Melbourne VIC","body":"<p>'Something Incredible'</p>","created_at":"2025-01-13"}},{"type":"Feature","geometry":{"type":"Point","coordinates":[-84.2806,30.4382]},"properties":{"location_name":"Tallahassee, FL","created_at":"2024-12-27"}},{"type":"Feature","geometry":{"type":"Point","coordinates":[119.0727,25.1608]},"properties":{"location_name":"中国福建省莆田市秀屿区前范村","body":"<p>前范村GPR研究中心</p>","created_at":"2024-12-26"}},{"type":"Feature","geometry":{"type":"Point","coordinates":[121.529,38.8804]},"properties":{"location_name":"中国辽宁省大连市甘井子区凌工路大连理工大学","body":"<p>桥隧研发基地</p>","created_at":"2024-12-26"}},{"type":"Feature","geometry":{"type":"Point","coordinates":[121.4737,31.2304]},"properties":{"location_name":"Shanghai, 上海市中国","created_at":"2024-12-25"}},{"type":"Feature","geometry":{"type":"Point","coordinates":[104.0665,30.5723]},"properties":{"location_name":"Chengdu, Sichuan, China","created_at":"2024-12-21"}},{"type":"Feature","geometry":{"type":"Point","coordinates":[12.6464,41.8387]},"properties":{"location_name":"Istituto di Astrofisica e Planetologia Spaziali, Via del Fosso del Cavaliere, Rome, Metropolitan City of Rome Capital","created_at":"2024-12-18"}},{"type":"Feature","geometry":{"type":"Point","coordinates":[-91.5087,46.6413]},"properties":{"location_name":"Oulu, Wisconsin","body":"<p>Using gprMax to help preserve the cultural resource heritage of the western Lake Superior region.</p>","created_at":"2024-12-14"}},{"type":"Feature","geometry":{"type":"Point","coordinates":[-85.3094,35.0458]},"properties":{"location_name":"Chattanooga, TN","created_at":"2024-12-13"}},{"type":"Feature","geometry":{"type":"Point","coordinates":[114.3425,30.5987]},"properties":{"location_name":"Wuhan University of Technology, 和平大道武昌区武汉市湖北省中国","created_at":"2024-12-09"}},{"type":"Feature","geometry":{"type":"Point","coordinates":[-1.5536,47.2184]},"properties":{"location_name":"Nantes","created_at":"2024-11-26"}},{"type":"Feature","geometry":{"type":"Point","coordinates":[77.1,28.5561]},"properties":{"location_name":"Delhi Airport (DEL), New Delhi, Delhi","created_at":"2024-11-25"}},{"type":"Feature","geometry":{"type":"Point","coordinates":[48.2976,38.2432]},"properties":{"location_name":"Ardabil, Ardabil Province, Iran","body":"<p>“Essentially, <strong><em>all models are wrong</em></strong>, <strong><em>but some models</em></strong> are <strong><em>useful</em></strong>.” – George Box.</p>","created_at":"2024-11-25"}},{"type":"Feature","geometry":{"type":"Point","coordinates":[80.0035,13.0085]},"properties":{"location_name":"Rajalakshmi Engineering College, Vellore - Chennai Road, Rajalakshmi Nagar, Thandalam, Tamil Nadu","body":"<p>by Akash, team Code-O-Philes &lt;3</p>","created_at":"2024-11-16"}},{"type":"Feature","geometry":{"type":"Point","coordinates":[25.7915,66.7826]},"properties":{"location_name":"芬兰拉皮","created_at":"2024-11-13"}},{"type":"Feature","geometry":{"type":"Point","coordinates":[115.8617,-31.9514]},"properties":{"location_name":"Perth WA","created_at":"2024-11-13"}},{"type":"Feature","geometry":{"type":"Point","coordinates":[125.3077,43.8826]},"properties":{"location_name":"中国吉林省长春市朝阳区东民主大街吉林大学朝阳校区","created_at":"2024-10-28"}},{"type":"Feature","geometry":{"type":"Point","coordinates":[126.8313,37.5627]},"properties":{"location_name":"서울특별시 강서구 마곡중앙10로 LG사이언스파크","created_at":"2024-10-23"}},{"type":"Feature","geometry":{"type":"Point","coordinates":[20.3054,63.8202]},"properties":{"location_name":"Umeå universitet, UNIVERSITETSTORGET, Umeå","created_at":"2024-10-15"}},{"type":"Feature","geometry":{"type":"Point","coordinates":[11.3524,44.4969]},"properties":{"location_name":"University of Bologna, Via Zamboni, Bologna, Metropolitan City of Bologna","created_at":"2024-10-13"}},{"type":"Feature","geometry":{"type":"Point","coordinates":[-123.1207,49.2827]},"properties":{"location_name":"Vancouver, BC","body":"<p>Using GPR to map soil parameters for radio astronomy!</p>","created_at":"2024-10-02"}},{"type":"Feature","geometry":{"type":"Point","coordinates":[-85.4604,32.587]},"properties":{"location_name":"Auburn, AL, USA","body":"<p>auburn rain</p>","created_at":"2024-09-30"}},{"type":"Feature","geometry":{"type":"Point","coordinates":[13.2302,-8.8147]},"properties":{"location_name":"Luanda","created_at":"2024-09-29"}},{"type":"Feature","geometry":{"type":"Point","coordinates":[-86.9081,40.4259]},"properties":{"location_name":"West Lafayette, IN","body":"<p>Purdue University</p>","created_at":"2024-09-27"}},{"type":"Feature","geometry":{"type":"Point","coordinates":[127.1181,37.2589]},"properties":{"location_name":"경기도 용인시 기흥구 민속촌로 한국민속촌","created_at":"2024-09-26"}},{"type":"Feature","geometry":{"type":"Point","coordinates":[-58.4446,-34.5423]},"properties":{"location_name":"Ciudad Universitaria de Buenos Aires, Avenida Intendente Güiraldes, Buenos Aires","created_at":"2024-09-18"}},{"type":"Feature","geometry":{"type":"Point","coordinates":[-6.2574,53.4256]},"properties":{"location_name":"Dublin Airport (DUB), Dublin, Ireland","created_at":"2024-09-13"}},{"type":"Feature","geometry":{"type":"Point","coordinates":[-75.6959,45.3872]},"properties":{"location_name":"Carleton University, Colonel By Drive, Ottawa, ON","created_at":"2024-09-12"}},{"type":"Feature","geometry":{"type":"Point","coordinates":[126.4738,45.6235]},"properties":{"location_name":"中国黑龙江省哈尔滨市","created_at":"2024-09-12"}},{"type":"Feature","geometry":{"type":"Point","coordinates":[9.9872,53.5488]},"properties":{"location_name":"Hamburg","created_at":"2024-09-10"}},{"type":"Feature","geometry":{"type":"Point","coordinates":[78.9629,20.5937]},"properties":{"location_name":"India","created_at":"2024-09-10"}},{"type":"Feature","geometry":{"type":"Point","coordinates":[-70.6693,-33.4489]},"properties":{"location_name":"Santiago de Chile","created_at":"2024-09-02"}},{"type":"Feature","geometry":{"type":"Point","coordinates":[153.4918,-28.1489]},"properties":{"location_name":"Tugun QLD","created_at":"2024-08-31"}},{"type":"Feature","geometry":{"type":"Point","coordinates":[106.7942,-6.4025]},"properties":{"location_name":"Depok, West Java","body":"<p>p</p>","created_at":"2024-08-29"}},{"type":"Feature","geometry":{"type":"Point","coordinates":[-21.9408,64.147]},"properties":{"location_name":"Reykjavík","created_at":"2024-08-28"}},{"type":"Feature","geometry":{"type":"Point","coordinates":[18.0764,48.3061]},"properties":{"location_name":"Nitra","created_at":"2024-08-26"}},{"type":"Feature","geometry":{"type":"Point","coordinates":[-77.0369,38.9072]},"properties":{"location_name":"Washington D.C., DC","body":"<p>I can't believe its not butter</p>","created_at":"2024-08-20"}},{"type":"Feature","geometry":{"type":"Point","coordinates":[27.9147,43.2141]},"properties":{"location_name":"Varna","created_at":"2024-08-17"}},{"type":"Feature","geometry":{"type":"Point","coordinates":[13.7373,51.0504]},"properties":{"location_name":"Dresden, Germany","created_at":"2024-07-31"}},{"type":"Feature","geometry":{"type":"Point","coordinates":[36.5712,40.6727]},"properties":{"location_name":"Erbaa, Tokat, Türkiye","created_at":"2024-07-31"}},{"type":"Feature","geometry":{"type":"Point","coordinates":[10.3951,63.4305]},"properties":{"location_name":"Trondheim","body":"<p>SINTEF, drone GPR</p>","created_at":"2024-07-26"}},{"type":"Feature","geometry":{"type":"Point","coordinates":[-58.3709,-34.6515]},"properties":{"location_name":"Av. Montes de Oca 2124, C1270ABV Cdad. Autónoma de Buenos Aires, Argentina","body":"<p>SHN</p>","created_at":"2024-07-23"}},{"type":"Feature","geometry":{"type":"Point","coordinates":[-58.429,-34.5827]},"properties":{"location_name":"CONICET, Godoy Cruz, Buenos Aires","created_at":"2024-07-15"}},{"type":"Feature","geometry":{"type":"Point","coordinates":[23.6236,46.7712]},"properties":{"location_name":"Cluj-Napoca","created_at":"2024-07-15"}},{"type":"Feature","geometry":{"type":"Point","coordinates":[-58.5135,-34.5761]},"properties":{"location_name":"INTI - Instituto Nacional de Tecnología Industrial, Avenida General Paz, San Martín, Buenos Aires","created_at":"2024-07-11"}},{"type":"Feature","geometry":{"type":"Point","coordinates":[112.6178,-7.9615]},"properties":{"location_name":"Universitas Negeri Malang, Jalan Semarang, Sumbersari, Malang City, East Java","created_at":"2024-06-26"}},{"type":"Feature","geometry":{"type":"Point","coordinates":[-74.0721,4.711]},"properties":{"location_name":"Bogotá, Bogota, Colombia","body":"<p>I am studying at the University of Kansas</p>","created_at":"2024-06-21"}},{"type":"Feature","geometry":{"type":"Point","coordinates":[140.5361,36.3915]},"properties":{"location_name":"日本、茨城県ひたちなか市","created_at":"2024-06-19"}},{"type":"Feature","geometry":{"type":"Point","coordinates":[103.8198,1.3521]},"properties":{"location_name":"Singapore","created_at":"2024-06-18"}},{"type":"Feature","geometry":{"type":"Point","coordinates":[77.0105,31.7852]},"properties":{"location_name":"Kamand, Himachal Pradesh, India","body":"<p>IIT MANDI</p>","created_at":"2024-06-14"}},{"type":"Feature","geometry":{"type":"Point","coordinates":[11.409,-0.1994]},"properties":{"location_name":"Gabon","body":"<p>MASSALA MBOYI Gilles Yowel, From Mbigou, Gabon.</p>","created_at":"2024-06-05"}},{"type":"Feature","geometry":{"type":"Point","coordinates":[-122.3255,37.563]},"properties":{"location_name":"San Mateo, CA","created_at":"2024-06-04"}},{"type":"Feature","geometry":{"type":"Point","coordinates":[32.7795,39.8923]},"properties":{"location_name":"Üniversiteler, Middle East Technical University, Üniversiteler Mahallesi, Dumlupınar Bulvarı, Çankaya/Ankara","created_at":"2024-05-30"}},{"type":"Feature","geometry":{"type":"Point","coordinates":[6.8937,52.2215]},"properties":{"location_name":"Enschede","body":"<p>Something Beautiful</p>","created_at":"2024-05-21"}},{"type":"Feature","geometry":{"type":"Point","coordinates":[56.227,58.0092]},"properties":{"location_name":"Perm, Россия","body":"<p>Greetings from Perm State University</p>","created_at":"2024-05-20"}},{"type":"Feature","geometry":{"type":"Point","coordinates":[-58.3816,-34.6037]},"properties":{"location_name":"Buenos Aires, Ciudad Autónoma de Buenos Aires","created_at":"2024-05-17"}},{"type":"Feature","geometry":{"type":"Point","coordinates":[112.5507,37.8706]},"properties":{"location_name":"Taiyuan, Shanxi, 中国","body":"<p>TaiYuan,ShanXi,China.</p>","created_at":"2024-05-12"}},{"type":"Feature","geometry":{"type":"Point","coordinates":[121.5654,25.033]},"properties":{"location_name":"Taipei","created_at":"2024-05-12"}},{"type":"Feature","geometry":{"type":"Point","coordinates":[14.2078,40.9731]},"properties":{"location_name":"Aversa, CE","body":"<p>hi!!</p>","created_at":"2024-05-09"}},{"type":"Feature","geometry":{"type":"Point","coordinates":[151.2093,-33.8688]},"properties":{"location_name":"Sydney NSW","created_at":"2024-05-03"}},{"type":"Feature","geometry":{"type":"Point","coordinates":[27.233,38.4578]},"properties":{"location_name":"Ege Üniversitesi, Bornova/İzmir","body":"<p>Electrical and Electronics Engineering</p>","created_at":"2024-04-21"}},{"type":"Feature","geometry":{"type":"Point","coordinates":[0.1243,52.2888]},"properties":{"location_name":"Cottenham, Cambridge","created_at":"2024-04-18"}},{"type":"Feature","geometry":{"type":"Point","coordinates":[117.229,31.8206]},"properties":{"location_name":"安徽省合肥","created_at":"2024-04-16"}},{"type":"Feature","geometry":{"type":"Point","coordinates":[4.6118,50.6681]},"properties":{"location_name":"Louvain-la-Neuve, Ottignies-Louvain-la-Neuve","created_at":"2024-04-15"}},{"type":"Feature","geometry":{"type":"Point","coordinates":[5.7245,45.1885]},"properties":{"location_name":"Grenoble","body":"<p>Use au GPRmax to simulate water leaks and detect them IRL</p>","created_at":"2024-04-08"}},{"type":"Feature","geometry":{"type":"Point","coordinates":[52.68,36.561]},"properties":{"location_name":"Mazandaran Province, Babol, Noushirvan SWay, Electronics, Iran","created_at":"2024-03-29"}},{"type":"Feature","geometry":{"type":"Point","coordinates":[-97.4367,35.1812]},"properties":{"location_name":"Advanced Radar Research Center (ARRC), Monitor Avenue, Norman, Oklahoma","body":"<p>Great radar research center!</p>","created_at":"2024-03-26"}},{"type":"Feature","geometry":{"type":"Point","coordinates":[-99.1487,19.3167]},"properties":{"location_name":"San Cástulo MZ526 LT215, Pedregal de Sta Úrsula, Coyoacán, Ciudad de México, CDMX, México","created_at":"2024-03-21"}},{"type":"Feature","geometry":{"type":"Point","coordinates":[28.3635,37.2147]},"properties":{"location_name":"Muğla, Menteşe/Muğla, Türkiye","body":"<p>Hi there! If your seeing this it means we look up to the same stars. Lets keep dreaming big and join meaningful projects like this one :)</p>","created_at":"2024-03-20"}},{"type":"Feature","geometry":{"type":"Point","coordinates":[77.0868,28.9823]},"properties":{"location_name":"Rishihood University, Kishora, Sonipat, Haryana","body":"<p>New Gen Education Tech</p>","created_at":"2024-03-20"}},{"type":"Feature","geometry":{"type":"Point","coordinates":[19.0325,50.2622]},"properties":{"location_name":"40-202 Katowice, Polska","created_at":"2024-03-16"}},{"type":"Feature","geometry":{"type":"Point","coordinates":[90.3929,23.7339]},"properties":{"location_name":"Dhaka University, Nilkhet Road, Dhaka","created_at":"2024-03-11"}},{"type":"Feature","geometry":{"type":"Point","coordinates":[46.2887,38.0792]},"properties":{"location_name":"Tabriz, East Azerbaijan Province","body":"<p>set off into the jungle</p>","created_at":"2024-03-08"}},{"type":"Feature","geometry":{"type":"Point","coordinates":[-77.0428,-12.0464]},"properties":{"location_name":"Lima","body":"<p>Lima, City of Kings</p>","created_at":"2024-03-07"}},{"type":"Feature","geometry":{"type":"Point","coordinates":[0.1313,52.1951]},"properties":{"location_name":"Cambridge, 剑桥","created_at":"2024-03-07"}},{"type":"Feature","geometry":{"type":"Point","coordinates":[-67.1175,18.2244]},"properties":{"location_name":"Mayagüez, Puerto Rico","created_at":"2024-03-07"}},{"type":"Feature","geometry":{"type":"Point","coordinates":[-8.6267,52.6638]},"properties":{"location_name":"Limerick","created_at":"2024-03-06"}},{"type":"Feature","geometry":{"type":"Point","coordinates":[51.1839,25.3548]},"properties":{"location_name":"Qatar","body":"<p>Hello!</p>","created_at":"2024-03-01"}},{"type":"Feature","geometry":{"type":"Point","coordinates":[33.4299,35.1264]},"properties":{"location_name":"Cyprus","body":"<p>Eleonora Kaiser</p><p>2/2024</p>","created_at":"2024-02-22"}},{"type":"Feature","geometry":{"type":"Point","coordinates":[34.8174,32.063]},"properties":{"location_name":"מחוז תל אביב, ישראל","created_at":"2024-02-22"}},{"type":"Feature","geometry":{"type":"Point","coordinates":[110.3595,1.5534]},"properties":{"location_name":"Kuching, Sarawak","created_at":"2024-02-22"}},{"type":"Feature","geometry":{"type":"Point","coordinates":[123.5152,41.7438]},"properties":{"location_name":"中国辽宁省沈阳市东陵区浑南东路沈阳建筑大学","created_at":"2024-02-15"}},{"type":"Feature","geometry":{"type":"Point","coordinates":[115.8617,-31.9514]},"properties":{"location_name":"Perth WA","body":"<p>don't know what I'm doing, but I'm sure doing it!</p>","created_at":"2024-02-14"}},{"type":"Feature","geometry":{"type":"Point","coordinates":[106.8229,-6.1944]},"properties":{"location_name":"Jakarta","body":"<p>Hello</p>","created_at":"2024-02-13"}},{"type":"Feature","geometry":{"type":"Point","coordinates":[84.677,21.913]},"properties":{"location_name":"Sundargarh, Odisha, India","body":"<p>using gprMax in NIT Rourkela</p>","created_at":"2024-02-08"}},{"type":"Feature","geometry":{"type":"Point","coordinates":[-79.0717,38.1496]},"properties":{"location_name":"Staunton, VA","created_at":"2024-02-01"}},{"type":"Feature","geometry":{"type":"Point","coordinates":[135.7681,35.0116]},"properties":{"location_name":"Kyoto, 京都府","created_at":"2024-02-01"}},{"type":"Feature","geometry":{"type":"Point","coordinates":[115.9541,29.6606]},"properties":{"location_name":"Jiujiang, 江西省中国","created_at":"2024-01-30"}},{"type":"Feature","geometry":{"type":"Point","coordinates":[15.6459,46.5547]},"properties":{"location_name":"Maribor, Slovenia","created_at":"2024-01-23"}},{"type":"Feature","geometry":{"type":"Point","coordinates":[-77.86,40.7934]},"properties":{"location_name":"State College, PA","body":"<p>Love NDTs</p>","created_at":"2024-01-16"}},{"type":"Feature","geometry":{"type":"Point","coordinates":[-1.7661,53.7915]},"properties":{"location_name":"University of Bradford, Richmond Road, Bradford","body":"<p>gprMax was a lifesaver during the pandemic! It is also a unique tool that made my previous research into wireless propagation in sewer pipes possible.</p>","created_at":"2024-01-11"}},{"type":"Feature","geometry":{"type":"Point","coordinates":[117.147,34.2158]},"properties":{"location_name":"中国江苏省徐州市铜山区大学路中国矿业大学南湖校区","created_at":"2024-01-10"}},{"type":"Feature","geometry":{"type":"Point","coordinates":[26.0129,44.9367]},"properties":{"location_name":"Ploiești","body":"<p><br></p><p><br></p>","created_at":"2024-01-06"}},{"type":"Feature","geometry":{"type":"Point","coordinates":[110.3667,1.5437]},"properties":{"location_name":"Kuching, Sarawak, Malaysia","created_at":"2024-01-05"}},{"type":"Feature","geometry":{"type":"Point","coordinates":[112.9307,28.1686]},"properties":{"location_name":"中国湖南省长沙市岳麓区中南大学地球科学与信息物理学院","created_at":"2024-01-04"}},{"type":"Feature","geometry":{"type":"Point","coordinates":[77.391,28.5355]},"properties":{"location_name":"Noida, Uttar Pradesh","body":"<p>ok</p><p><br></p>","created_at":"2024-01-03"}},{"type":"Feature","geometry":{"type":"Point","coordinates":[114.4284,30.5649]},"properties":{"location_name":"中国湖北省武汉市洪山区","created_at":"2023-12-21"}},{"type":"Feature","geometry":{"type":"Point","coordinates":[111.3181,30.7205]},"properties":{"location_name":"China Three Gorges University, 大学路西陵区宜昌市湖北省中国","body":"<p>halou</p>","created_at":"2023-12-13"}},{"type":"Feature","geometry":{"type":"Point","coordinates":[-19.0208,64.9631]},"properties":{"location_name":"Iceland","body":"<p>Trying to start using it.</p><p><br></p>","created_at":"2023-11-29"}},{"type":"Feature","geometry":{"type":"Point","coordinates":[121.4737,31.2304]},"properties":{"location_name":"Shanghai, 上海市中国","created_at":"2023-11-27"}},{"type":"Feature","geometry":{"type":"Point","coordinates":[-9.299,38.6921]},"properties":{"location_name":"Escola Superior Náutica Infante D. Henrique, Avenida Engenheiro Bonneville Franco, Paço de Arcos","created_at":"2023-11-21"}},{"type":"Feature","geometry":{"type":"Point","coordinates":[-3.7038,40.4168]},"properties":{"location_name":"Madrid","created_at":"2023-11-17"}},{"type":"Feature","geometry":{"type":"Point","coordinates":[-8.2935,41.4507]},"properties":{"location_name":"Universidade do Minho - Campus de Azurém, Avenida da Universidade, Guimarães","created_at":"2023-11-16"}},{"type":"Feature","geometry":{"type":"Point","coordinates":[118.7965,32.0584]},"properties":{"location_name":"中国江苏省南京","body":"<p>hold on</p>","created_at":"2023-11-13"}},{"type":"Feature","geometry":{"type":"Point","coordinates":[23.8835,38.0035]},"properties":{"location_name":"Pallini, Greece","created_at":"2023-11-11"}},{"type":"Feature","geometry":{"type":"Point","coordinates":[-74.4474,40.5008]},"properties":{"location_name":"Rutgers–New Brunswick, New Brunswick, NJ","created_at":"2023-11-10"}},{"type":"Feature","geometry":{"type":"Point","coordinates":[2.0483,48.778]},"properties":{"location_name":"LATMOS, Boulevard d'Alembert, Guyancourt","created_at":"2023-11-10"}},{"type":"Feature","geometry":{"type":"Point","coordinates":[-75.1652,39.9526]},"properties":{"location_name":"Philadelphia, PA","body":"<p>Temple University</p>","created_at":"2023-11-08"}},{"type":"Feature","geometry":{"type":"Point","coordinates":[78.9629,20.5937]},"properties":{"location_name":"India","created_at":"2023-11-01"}},{"type":"Feature","geometry":{"type":"Point","coordinates":[24.9384,60.1699]},"properties":{"location_name":"Helsinki","body":"<p>Trying a comparison test</p>","created_at":"2023-11-01"}},{"type":"Feature","geometry":{"type":"Point","coordinates":[126.641,45.7486]},"properties":{"location_name":"中国黑龙江省哈尔滨市南岗区","body":"<p>Hit</p>","created_at":"2023-10-25"}},{"type":"Feature","geometry":{"type":"Point","coordinates":[5.1019,52.109]},"properties":{"location_name":"Nieuwlichtstraat, Utrecht","created_at":"2023-10-23"}},{"type":"Feature","geometry":{"type":"Point","coordinates":[131.6508,33.2332]},"properties":{"location_name":"大分県大分市牧１６６６ 大分工業高等専門学校","created_at":"2023-10-23"}},{"type":"Feature","geometry":{"type":"Point","coordinates":[-71.8023,42.2626]},"properties":{"location_name":"Worcester, MA","created_at":"2023-10-10"}},{"type":"Feature","geometry":{"type":"Point","coordinates":[152.9074,-27.6828]},"properties":{"location_name":"UniSQ Springfield Campus (D101 Auditorium), Springfield Central QLD","created_at":"2023-10-09"}},{"type":"Feature","geometry":{"type":"Point","coordinates":[-80.7821,8.538]},"properties":{"location_name":"Panamá","created_at":"2023-09-26"}},{"type":"Feature","geometry":{"type":"Point","coordinates":[-74.0721,4.711]},"properties":{"location_name":"Bogotá, Bogota","body":"<div>MASTER’S DEGREE IN ELECTRONIC ENGINEERING.<br>Radar System class 2023-2 </div>","created_at":"2023-09-26"}},{"type":"Feature","geometry":{"type":"Point","coordinates":[116.3118,39.9594]},"properties":{"location_name":"中国北京市","created_at":"2023-09-21"}},{"type":"Feature","geometry":{"type":"Point","coordinates":[19.8227,45.2396]},"properties":{"location_name":"Novi Sad","created_at":"2023-09-11"}},{"type":"Feature","geometry":{"type":"Point","coordinates":[125.308,43.8824]},"properties":{"location_name":"永昌街道, 朝阳区, 长春市, 绿园区, 吉林省, 中国","created_at":"2023-09-11"}},{"type":"Feature","geometry":{"type":"Point","coordinates":[106.8456,-6.2088]},"properties":{"location_name":"Jakarta","created_at":"2023-09-05"}},{"type":"Feature","geometry":{"type":"Point","coordinates":[-0.4677,51.7386]},"properties":{"location_name":"Frogmore Road, Hemel Hempstead","created_at":"2023-08-31"}},{"type":"Feature","geometry":{"type":"Point","coordinates":[91.663,26.154]},"properties":{"location_name":"Gauhati University, Gopinath Bordoloi Nagar, Jalukbari, Guwahati, Assam","created_at":"2023-08-31"}},{"type":"Feature","geometry":{"type":"Point","coordinates":[103.8467,46.8625]},"properties":{"location_name":"Mongolia","created_at":"2023-08-30"}},{"type":"Feature","geometry":{"type":"Point","coordinates":[54.3773,24.4539]},"properties":{"location_name":"Abu Dhabi","created_at":"2023-08-30"}},{"type":"Feature","geometry":{"type":"Point","coordinates":[31.4361,30.3021]},"properties":{"location_name":"Unnamed Road, 10th of Rammadan Desert, Ash Sharqia Governorate, Egypt","body":"<div>shrk</div>","created_at":"2023-08-26"}},{"type":"Feature","geometry":{"type":"Point","coordinates":[-76.4735,42.4534]},"properties":{"location_name":"Cornell University, Ithaca, NY","created_at":"2023-08-24"}},{"type":"Feature","geometry":{"type":"Point","coordinates":[121.529,38.8804]},"properties":{"location_name":"辽宁省大连市甘井子区凌工路大连理工大学","body":"<div>姚爱春晓</div>","created_at":"2023-08-21"}},{"type":"Feature","geometry":{"type":"Point","coordinates":[47.1075,36.3998]},"properties":{"location_name":"Takab, West Azerbaijan Province, Iran","created_at":"2023-08-19"}},{"type":"Feature","geometry":{"type":"Point","coordinates":[116.2071,39.9306]},"properties":{"location_name":"中国北京市石景山区晋元庄路北方工业大学（北门）","created_at":"2023-08-16"}},{"type":"Feature","geometry":{"type":"Point","coordinates":[-37.0843,-6.4672]},"properties":{"location_name":"Departamento de Computaçāo e Tecnologia/ Prédio Bacharelado em Sistemas de Informação (BSI), Caicó - RN","created_at":"2023-08-14"}},{"type":"Feature","geometry":{"type":"Point","coordinates":[113.3785,23.0393]},"properties":{"location_name":"Guangzhou University （South 1 Gate）, 大学城环校东路番禺区广州市广东省中国","body":"<div><br><br></div>","created_at":"2023-08-08"}},{"type":"Feature","geometry":{"type":"Point","coordinates":[85.8245,20.2961]},"properties":{"location_name":"Bhubaneswar, Odisha, India","body":"<div>Calm and cute</div>","created_at":"2023-08-08"}},{"type":"Feature","geometry":{"type":"Point","coordinates":[-87.4139,39.4667]},"properties":{"location_name":"Terre Haute, IN","created_at":"2023-08-07"}},{"type":"Feature","geometry":{"type":"Point","coordinates":[116.5872,35.4146]},"properties":{"location_name":"山东省济宁","created_at":"2023-08-01"}},{"type":"Feature","geometry":{"type":"Point","coordinates":[-83.6961,9.366]},"properties":{"location_name":"San José, San Isidro de El General","created_at":"2023-07-26"}},{"type":"Feature","geometry":{"type":"Point","coordinates":[34.8516,31.0461]},"properties":{"location_name":"Israel","created_at":"2023-07-26"}},{"type":"Feature","geometry":{"type":"Point","coordinates":[23.6189,46.7778]},"properties":{"location_name":"Mărăști, Cluj-Napoca, Romania","created_at":"2023-07-23"}},{"type":"Feature","geometry":{"type":"Point","coordinates":[-3.436,55.3781]},"properties":{"location_name":"United Kingdom","created_at":"2023-07-21"}},{"type":"Feature","geometry":{"type":"Point","coordinates":[-71.4824,-16.416]},"properties":{"location_name":"Paucarpata, Arequipa","created_at":"2023-07-19"}},{"type":"Feature","geometry":{"type":"Point","coordinates":[8.2275,46.8182]},"properties":{"location_name":"Switzerland","created_at":"2023-07-16"}},{"type":"Feature","geometry":{"type":"Point","coordinates":[-41.7781,-4.2747]},"properties":{"location_name":"Piripiri, PI","created_at":"2023-07-13"}},{"type":"Feature","geometry":{"type":"Point","coordinates":[33.44,36.6417]},"properties":{"location_name":"Mut, Mersin, Türkiye","created_at":"2023-07-12"}},{"type":"Feature","geometry":{"type":"Point","coordinates":[-117.0126,46.7288]},"properties":{"location_name":"University of Idaho, Perimeter Drive, Moscow, ID","created_at":"2023-07-10"}},{"type":"Feature","geometry":{"type":"Point","coordinates":[-1.155,52.954]},"properties":{"location_name":"Nottingham","created_at":"2023-06-30"}},{"type":"Feature","geometry":{"type":"Point","coordinates":[17.6408,59.8609]},"properties":{"location_name":"S:t Persgatan 21, 20 Uppsala, Sverige","body":"<div>Bjerking                          </div>","created_at":"2023-06-21"}},{"type":"Feature","geometry":{"type":"Point","coordinates":[13.7768,45.6495]},"properties":{"location_name":"Trieste, Province of Trieste","created_at":"2023-06-16"}},{"type":"Feature","geometry":{"type":"Point","coordinates":[-88.3126,41.85]},"properties":{"location_name":"Batavia, IL","created_at":"2023-06-15"}},{"type":"Feature","geometry":{"type":"Point","coordinates":[140.8694,38.2682]},"properties":{"location_name":"Sendai, 宮城県","created_at":"2023-06-15"}},{"type":"Feature","geometry":{"type":"Point","coordinates":[16.3738,48.2082]},"properties":{"location_name":"Vienna","body":"<div>University of Vienna<br>Vienna Institute for Archaeological Science (VIAS)</div>","created_at":"2023-06-14"}},{"type":"Feature","geometry":{"type":"Point","coordinates":[36.2505,49.8936]},"properties":{"location_name":"Kharkiv, Kharkiv Oblast, Ukraine","created_at":"2023-06-05"}},{"type":"Feature","geometry":{"type":"Point","coordinates":[114.1694,22.3193]},"properties":{"location_name":"Hong Kong","created_at":"2023-05-31"}},{"type":"Feature","geometry":{"type":"Point","coordinates":[-97.7431,30.2672]},"properties":{"location_name":"Austin, TX","created_at":"2023-05-27"}},{"type":"Feature","geometry":{"type":"Point","coordinates":[10.1815,36.8065]},"properties":{"location_name":"Tunis","created_at":"2023-05-18"}},{"type":"Feature","geometry":{"type":"Point","coordinates":[-48.5013,-1.4563]},"properties":{"location_name":"Belém, PA","body":"<div>Big names of Geophysics gathered. gprMax is an exceptional tool in data modelling.</div>","created_at":"2023-05-18"}},{"type":"Feature","geometry":{"type":"Point","coordinates":[127.1577,36.1909]},"properties":{"location_name":"Nonsan-si, 충청남도","created_at":"2023-05-17"}},{"type":"Feature","geometry":{"type":"Point","coordinates":[-100.9394,25.541]},"properties":{"location_name":"Ramos Arizpe, Coah., México","body":"<div>ramos</div>","created_at":"2023-05-12"}},{"type":"Feature","geometry":{"type":"Point","coordinates":[79.8956,7.0657]},"properties":{"location_name":"Station Rd, Ja-Ela, Sri Lanka","created_at":"2023-05-11"}},{"type":"Feature","geometry":{"type":"Point","coordinates":[16.4185,40.8171]},"properties":{"location_name":"Gravina in Puglia, BA","created_at":"2023-05-05"}},{"type":"Feature","geometry":{"type":"Point","coordinates":[7.8421,47.999]},"properties":{"location_name":"Freiburg im Breisgau","created_at":"2023-04-29"}},{"type":"Feature","geometry":{"type":"Point","coordinates":[-84.5565,39.2176]},"properties":{"location_name":"The United States of Ablaristan, Betts Avenue, North College Hill, OH","body":"<div>no bad weather</div>","created_at":"2023-04-22"}},{"type":"Feature","geometry":{"type":"Point","coordinates":[12.5049,55.7666]},"properties":{"location_name":"Kongens Lyngby, Denmark","body":"<div>COWI</div>","created_at":"2023-04-21"}},{"type":"Feature","geometry":{"type":"Point","coordinates":[15.473,49.8175]},"properties":{"location_name":"Czech Republic","created_at":"2023-04-18"}},{"type":"Feature","geometry":{"type":"Point","coordinates":[112.7521,-7.2575]},"properties":{"location_name":"Surabaya, Surabaya City, East Java","created_at":"2023-04-15"}},{"type":"Feature","geometry":{"type":"Point","coordinates":[17.0385,51.1079]},"properties":{"location_name":"Wrocław","created_at":"2023-04-11"}},{"type":"Feature","geometry":{"type":"Point","coordinates":[20.4612,44.8125]},"properties":{"location_name":"Belgrade, Serbia","created_at":"2023-04-07"}},{"type":"Feature","geometry":{"type":"Point","coordinates":[15.9819,45.815]},"properties":{"location_name":"Zagreb","created_at":"2023-04-06"}},{"type":"Feature","geometry":{"type":"Point","coordinates":[122.1949,37.4432]},"properties":{"location_name":"Weihai Port, 环翠区威海市中国","created_at":"2023-04-03"}},{"type":"Feature","geometry":{"type":"Point","coordinates":[31.41,30.0329]},"properties":{"location_name":"Cairo Festival City, Nasr City","created_at":"2023-04-02"}},{"type":"Feature","geometry":{"type":"Point","coordinates":[-83.743,42.2808]},"properties":{"location_name":"Ann Arbor, MI","created_at":"2023-03-31"}},{"type":"Feature","geometry":{"type":"Point","coordinates":[33.3911,67.5671]},"properties":{"location_name":"Apatity, Murmansk Oblast","body":"<div>Northern Energetic Research Centre</div>","created_at":"2023-03-29"}},{"type":"Feature","geometry":{"type":"Point","coordinates":[9.9158,51.5413]},"properties":{"location_name":"Göttingen","created_at":"2023-03-29"}},{"type":"Feature","geometry":{"type":"Point","coordinates":[112.9952,28.5055]},"properties":{"location_name":"中国湖南省","created_at":"2023-03-27"}},{"type":"Feature","geometry":{"type":"Point","coordinates":[87.6169,43.8266]},"properties":{"location_name":"中国新疆维吾尔自治区乌鲁木齐","created_at":"2023-03-19"}},{"type":"Feature","geometry":{"type":"Point","coordinates":[86.4304,23.7957]},"properties":{"location_name":"Dhanbad, Jharkhand","created_at":"2023-03-17"}},{"type":"Feature","geometry":{"type":"Point","coordinates":[72.5714,23.0225]},"properties":{"location_name":"Ahmedabad, Gujarat","body":"<div>I am using grpMax for the first time. I look to contribute in this organization which can provide me amazing learning experience. </div>","created_at":"2023-03-11"}},{"type":"Feature","geometry":{"type":"Point","coordinates":[126.9562,37.649]},"properties":{"location_name":"대한민국 서울특별시","created_at":"2023-03-07"}},{"type":"Feature","geometry":{"type":"Point","coordinates":[-93.6368,42.0242]},"properties":{"location_name":"Ames, IA, USA","created_at":"2023-03-07"}},{"type":"Feature","geometry":{"type":"Point","coordinates":[24.1056,56.9677]},"properties":{"location_name":"Riga","body":"<div>Paldies!</div>","created_at":"2023-03-05"}},{"type":"Feature","geometry":{"type":"Point","coordinates":[126.978,37.5665]},"properties":{"location_name":"서울","created_at":"2023-03-03"}},{"type":"Feature","geometry":{"type":"Point","coordinates":[43.151,36.3297]},"properties":{"location_name":"Nineveh University, Mosul","body":"<div>Eng.Radhwan ELHussainy<br>المهندس : رضوان الحسيني&nbsp;<br>instagram : @Rdwun<br>telegram : @Rdwun</div>","created_at":"2023-03-02"}},{"type":"Feature","geometry":{"type":"Point","coordinates":[4.8701,52.3114]},"properties":{"location_name":"Amstelveen","body":"<div>VU Amsterdam</div>","created_at":"2023-02-25"}},{"type":"Feature","geometry":{"type":"Point","coordinates":[38.7578,8.9806]},"properties":{"location_name":"Addis Ababa, Ethiopia","body":"<div>From land of origins with 13 month sunshine.</div>","created_at":"2023-02-16"}},{"type":"Feature","geometry":{"type":"Point","coordinates":[32.9339,39.9159]},"properties":{"location_name":"Boğaziçi, Mamak/Ankara","created_at":"2023-02-12"}},{"type":"Feature","geometry":{"type":"Point","coordinates":[125.3236,43.816]},"properties":{"location_name":"Changchun, 吉林省","created_at":"2023-02-10"}},{"type":"Feature","geometry":{"type":"Point","coordinates":[-3.7127,40.43]},"properties":{"location_name":"Higher Technical School of Engineering (ICAI), Calle de Alberto Aguilera, Madrid","body":"<div>Icai</div>","created_at":"2023-02-09"}},{"type":"Feature","geometry":{"type":"Point","coordinates":[-43.1729,-22.9068]},"properties":{"location_name":"Rio de Janeiro, State of Rio de Janeiro","created_at":"2023-02-08"}},{"type":"Feature","geometry":{"type":"Point","coordinates":[-3.1723,55.9223]},"properties":{"location_name":"King's Buildings, Mayfield Road, Edinburgh","created_at":"2023-01-31"}},{"type":"Feature","geometry":{"type":"Point","coordinates":[-4.129,55.8548]},"properties":{"location_name":"Garrowhill, Glasgow, UK","created_at":"2023-01-31"}},{"type":"Feature","geometry":{"type":"Point","coordinates":[-6.6892,55.115]},"properties":{"location_name":"Coleraine BT51, UK","created_at":"2023-01-31"}},{"type":"Feature","geometry":{"type":"Point","coordinates":[-3.6051,55.0709]},"properties":{"location_name":"Dumfries","created_at":"2023-01-31"}},{"type":"Feature","geometry":{"type":"Point","coordinates":[-6.2521,54.1053]},"properties":{"location_name":"Warrenpoint, Newry","created_at":"2023-01-31"}},{"type":"Feature","geometry":{"type":"Point","coordinates":[-3.1724,55.9224]},"properties":{"location_name":"James Clerk Maxwell Bldg King's Buildings, Mayfield Rd, Edinburgh, UK","created_at":"2023-01-31"}},{"type":"Feature","geometry":{"type":"Point","coordinates":[-3.1724,55.9225]},"properties":{"location_name":"James Clerk Maxwell Bldg King's Buildings, Mayfield Rd, Edinburgh, UK","created_at":"2023-01-31"}},{"type":"Feature","geometry":{"type":"Point","coordinates":[174.7645,-36.8509]},"properties":{"location_name":"Auckland","created_at":"2023-01-31"}},{"type":"Feature","geometry":{"type":"Point","coordinates":[-73.5674,45.5019]},"properties":{"location_name":"Montréal, QC","body":"<div>ETS </div>","created_at":"2023-01-30"}},{"type":"Feature","geometry":{"type":"Point","coordinates":[-0.9036,52.2408]},"properties":{"location_name":"Northampton, UK","created_at":"2023-01-30"}},{"type":"Feature","geometry":{"type":"Point","coordinates":[4.8902,45.7719]},"properties":{"location_name":"Villeurbanne","created_at":"2023-01-21"}},{"type":"Feature","geometry":{"type":"Point","coordinates":[-75.5668,39.662]},"properties":{"location_name":"New Castle, DE","created_at":"2023-01-15"}},{"type":"Feature","geometry":{"type":"Point","coordinates":[21.8243,39.0742]},"properties":{"location_name":"Ελλάδα","created_at":"2023-01-06"}},{"type":"Feature","geometry":{"type":"Point","coordinates":[32.0047,36.5503]},"properties":{"location_name":"Alanya, Antalya, Türkiye","created_at":"2023-01-03"}},{"type":"Feature","geometry":{"type":"Point","coordinates":[12.3813,51.2957]},"properties":{"location_name":"Geophysik GGD mbH, Bornaische Straße, Leipzig","body":"<div>Simulating Asphalt Roads</div>","created_at":"2022-12-29"}},{"type":"Feature","geometry":{"type":"Point","coordinates":[51.1839,25.3548]},"properties":{"location_name":"Qatar","created_at":"2022-12-24"}},{"type":"Feature","geometry":{"type":"Point","coordinates":[16.3557,48.2487]},"properties":{"location_name":"Hohe Warte 38, Wien, Österreich","created_at":"2022-12-16"}},{"type":"Feature","geometry":{"type":"Point","coordinates":[-91.1871,30.4515]},"properties":{"location_name":"Baton Rouge, LA","created_at":"2022-12-15"}},{"type":"Feature","geometry":{"type":"Point","coordinates":[123.4292,41.8357]},"properties":{"location_name":"中国辽宁","created_at":"2022-12-13"}},{"type":"Feature","geometry":{"type":"Point","coordinates":[38.7637,8.9395]},"properties":{"location_name":"Addis Ababa, Ethiopia","body":"<div>I am a geophysicist by training and currently teaching at the Addis Ababa Science and Technology University, Department of Mining Engineering. Would like to collaborate on research and training in Geosciences and Mining. &nbsp; With best wishes,<br>Girma Woldetinsae ( [email removed]/ [email removed]).</div>","created_at":"2022-12-09"}},{"type":"Feature","geometry":{"type":"Point","coordinates":[8.5055,47.41]},"properties":{"location_name":"ETH Zürich - Versuchsanstalt für Wasserbau, Hydrologie und Glaziologie, Hönggerbergring, Zurich","created_at":"2022-12-08"}},{"type":"Feature","geometry":{"type":"Point","coordinates":[10.1815,36.8065]},"properties":{"location_name":"Tunis","created_at":"2022-12-07"}},{"type":"Feature","geometry":{"type":"Point","coordinates":[37.6173,55.7558]},"properties":{"location_name":"Moscow","created_at":"2022-12-03"}},{"type":"Feature","geometry":{"type":"Point","coordinates":[-72.2358,-39.283]},"properties":{"location_name":"Villarrica, Araucania, Chile","body":"<div>ola</div>","created_at":"2022-11-27"}},{"type":"Feature","geometry":{"type":"Point","coordinates":[58.3829,23.588]},"properties":{"location_name":"Muscat","created_at":"2022-11-21"}},{"type":"Feature","geometry":{"type":"Point","coordinates":[12.6036,56.0432]},"properties":{"location_name":"Helsingör, Danmark","body":"<div>Adapis Georadar Teknik AB</div>","created_at":"2022-11-21"}},{"type":"Feature","geometry":{"type":"Point","coordinates":[13.191,55.7047]},"properties":{"location_name":"Lund","created_at":"2022-11-19"}},{"type":"Feature","geometry":{"type":"Point","coordinates":[-76.4951,44.2253]},"properties":{"location_name":"Queen's University, University Avenue, Kingston, ON","created_at":"2022-11-17"}},{"type":"Feature","geometry":{"type":"Point","coordinates":[-123.1815,49.1967]},"properties":{"location_name":"Vancouver International Airport (YVR), Grant McConachie Way, Richmond, BC","created_at":"2022-11-16"}},{"type":"Feature","geometry":{"type":"Point","coordinates":[-71.9675,-13.532]},"properties":{"location_name":"Cusco, Peru","created_at":"2022-11-16"}},{"type":"Feature","geometry":{"type":"Point","coordinates":[-68.1193,-16.4897]},"properties":{"location_name":"La Paz, Bolivia","created_at":"2022-11-10"}},{"type":"Feature","geometry":{"type":"Point","coordinates":[-1.8904,52.4862]},"properties":{"location_name":"Birmingham","created_at":"2022-11-07"}},{"type":"Feature","geometry":{"type":"Point","coordinates":[117.1201,36.6518]},"properties":{"location_name":"中国山东省济南","body":"<div>✌</div>","created_at":"2022-11-05"}},{"type":"Feature","geometry":{"type":"Point","coordinates":[116.35,40.0045]},"properties":{"location_name":"Beijing Forestry University, 清华东路海淀区北京市","created_at":"2022-11-02"}},{"type":"Feature","geometry":{"type":"Point","coordinates":[111.6855,40.7589]},"properties":{"location_name":"Inner Mongolia University, 玉泉区呼和浩特市内蒙古自治区中国","created_at":"2022-11-02"}},{"type":"Feature","geometry":{"type":"Point","coordinates":[-81.7832,32.4488]},"properties":{"location_name":"Statesboro, GA","created_at":"2022-10-29"}},{"type":"Feature","geometry":{"type":"Point","coordinates":[113.3537,23.1568]},"properties":{"location_name":"South China Agricultural University, 五山路 Tianhe District, Guangzhou, Guangdong Province, China","created_at":"2022-10-24"}},{"type":"Feature","geometry":{"type":"Point","coordinates":[120.1552,30.2741]},"properties":{"location_name":"浙江省杭州","created_at":"2022-10-18"}},{"type":"Feature","geometry":{"type":"Point","coordinates":[12.8257,45.8238]},"properties":{"location_name":"Città Metropolitana di Venezia, Italia","created_at":"2022-10-17"}},{"type":"Feature","geometry":{"type":"Point","coordinates":[37.5199,55.9297]},"properties":{"location_name":"Moskovskiy Fiziko-Tekhnicheskiy Institut, Institutskiy Pereulok, Dolgoprudny, Moscow Oblast","created_at":"2022-10-17"}},{"type":"Feature","geometry":{"type":"Point","coordinates":[118.7965,32.0584]},"properties":{"location_name":"中国江苏省南京","created_at":"2022-10-16"}},{"type":"Feature","geometry":{"type":"Point","coordinates":[-0.1276,51.5072]},"properties":{"location_name":"London","body":"<div><br><br></div>","created_at":"2022-10-13"}},{"type":"Feature","geometry":{"type":"Point","coordinates":[113.5439,22.1987]},"properties":{"location_name":"澳门","created_at":"2022-10-07"}},{"type":"Feature","geometry":{"type":"Point","coordinates":[88.1893,69.3558]},"properties":{"location_name":"Норильск","created_at":"2022-10-06"}},{"type":"Feature","geometry":{"type":"Point","coordinates":[-84.6155,34.0234]},"properties":{"location_name":"Kennesaw, GA","created_at":"2022-10-06"}},{"type":"Feature","geometry":{"type":"Point","coordinates":[19.945,50.0647]},"properties":{"location_name":"Kraków, Polska","created_at":"2022-10-05"}},{"type":"Feature","geometry":{"type":"Point","coordinates":[-71.543,-35.6751]},"properties":{"location_name":"Chile","created_at":"2022-10-02"}},{"type":"Feature","geometry":{"type":"Point","coordinates":[132.7653,33.8394]},"properties":{"location_name":"Matsuyama, 愛媛県","body":"<div>Matsuyama City、Ehime</div><div><br></div>","created_at":"2022-09-30"}},{"type":"Feature","geometry":{"type":"Point","coordinates":[30.3609,59.9311]},"properties":{"location_name":"Санкт-Петербург","created_at":"2022-09-28"}},{"type":"Feature","geometry":{"type":"Point","coordinates":[139.2527,36.0625]},"properties":{"location_name":"小川町, 比企郡, 埼玉県, 日本","created_at":"2022-09-27"}},{"type":"Feature","geometry":{"type":"Point","coordinates":[8.9463,44.4056]},"properties":{"location_name":"Genova, Metropolitan City of Genoa","body":"<div>DITEN, University of Genoa, Italy</div>","created_at":"2022-09-27"}},{"type":"Feature","geometry":{"type":"Point","coordinates":[-45.9151,-24.8618]},"properties":{"location_name":"(-24.86176469007982, -45.91507462407092)","created_at":"2022-09-23"}},{"type":"Feature","geometry":{"type":"Point","coordinates":[110.29,25.2736]},"properties":{"location_name":"Guilin, 广西壮族自治区中国","body":"<div>Guilin university of technology</div>","created_at":"2022-09-20"}},{"type":"Feature","geometry":{"type":"Point","coordinates":[-4.2889,55.8734]},"properties":{"location_name":"University of Glasgow Library","created_at":"2022-09-16"}},{"type":"Feature","geometry":{"type":"Point","coordinates":[60.8579,29.4682]},"properties":{"location_name":"Zahedan, Sistan and Baluchestan Province, Iran","created_at":"2022-09-14"}},{"type":"Feature","geometry":{"type":"Point","coordinates":[131.0875,31.5361]},"properties":{"location_name":"Kagoshima, Japan","created_at":"2022-09-10"}},{"type":"Feature","geometry":{"type":"Point","coordinates":[126.6424,45.7567]},"properties":{"location_name":"中国黑龙江省哈尔滨","created_at":"2022-09-08"}},{"type":"Feature","geometry":{"type":"Point","coordinates":[110.3218,-7.8361]},"properties":{"location_name":"Tamantirto, Kasihan, Bantul, Daerah Istimewa Yogyakarta, Indonesia","created_at":"2022-09-01"}},{"type":"Feature","geometry":{"type":"Point","coordinates":[5.1586,52.0874]},"properties":{"location_name":"Utrecht, Nederland","created_at":"2022-08-30"}},{"type":"Feature","geometry":{"type":"Point","coordinates":[11.671,48.2656]},"properties":{"location_name":"Technische Universität München Garching, Boltzmannstraße, Garching bei München","body":"<div>Lehrstuhl für Zerstörungsfreie Prüfung</div>","created_at":"2022-08-27"}},{"type":"Feature","geometry":{"type":"Point","coordinates":[11.9746,57.7089]},"properties":{"location_name":"Goteborg, Sweden","created_at":"2022-08-26"}},{"type":"Feature","geometry":{"type":"Point","coordinates":[120.0804,30.9029]},"properties":{"location_name":"中国浙江省湖州市吴兴区","created_at":"2022-08-19"}},{"type":"Feature","geometry":{"type":"Point","coordinates":[14.2681,40.8518]},"properties":{"location_name":"Napoli, NA","created_at":"2022-08-18"}},{"type":"Feature","geometry":{"type":"Point","coordinates":[-105.1534,50.7259]},"properties":{"location_name":"Saskatchewan, Canada","created_at":"2022-08-17"}},{"type":"Feature","geometry":{"type":"Point","coordinates":[3.1149,45.894]},"properties":{"location_name":"Riom","created_at":"2022-08-14"}},{"type":"Feature","geometry":{"type":"Point","coordinates":[11.5679,48.1497]},"properties":{"location_name":"Technische Universität München, Arcisstraße, München","created_at":"2022-08-13"}},{"type":"Feature","geometry":{"type":"Point","coordinates":[104.0665,30.5723]},"properties":{"location_name":"Chengdu, Sichuan, China","created_at":"2022-08-13"}},{"type":"Feature","geometry":{"type":"Point","coordinates":[30.5234,50.4501]},"properties":{"location_name":"Kyiv, Ukraine","body":"<div><a href=\"http://www.univ.kiev.ua/en/\">Taras Shevchenko National University of Kyiv</a>.<br><a href=\"http://csc.knu.ua/en/\">Faculty of Computer Science and Cybernetics</a>.<br>Slava Ukraini!</div>","created_at":"2022-08-01"}},{"type":"Feature","geometry":{"type":"Point","coordinates":[120.7332,30.7477]},"properties":{"location_name":"中国嘉兴市南湖区嘉兴学院","created_at":"2022-07-29"}},{"type":"Feature","geometry":{"type":"Point","coordinates":[113.5358,34.8081]},"properties":{"location_name":"中国河南省郑州市中原区科学大道郑州大学","body":"<div>梦将起航</div>","created_at":"2022-07-28"}},{"type":"Feature","geometry":{"type":"Point","coordinates":[-118.2551,34.1425]},"properties":{"location_name":"Glendale, CA, USA","created_at":"2022-07-27"}},{"type":"Feature","geometry":{"type":"Point","coordinates":[14.2767,41.6057]},"properties":{"location_name":"Pesche, IS","created_at":"2022-07-13"}},{"type":"Feature","geometry":{"type":"Point","coordinates":[111.2863,30.6918]},"properties":{"location_name":"中国湖北宜昌","created_at":"2022-07-07"}},{"type":"Feature","geometry":{"type":"Point","coordinates":[-2.2426,53.4808]},"properties":{"location_name":"Manchester","created_at":"2022-07-05"}},{"type":"Feature","geometry":{"type":"Point","coordinates":[-43.9677,-19.8707]},"properties":{"location_name":"UFMG - Avenida Presidente Antônio Carlos - Pampulha, Belo Horizonte - State of Minas Gerais","created_at":"2022-07-03"}},{"type":"Feature","geometry":{"type":"Point","coordinates":[139.6503,35.6762]},"properties":{"location_name":"Tokyo","body":"<div>Bonsai_geo</div>","created_at":"2022-06-30"}},{"type":"Feature","geometry":{"type":"Point","coordinates":[13.0645,52.3906]},"properties":{"location_name":"Potsdam","created_at":"2022-06-29"}},{"type":"Feature","geometry":{"type":"Point","coordinates":[7.262,43.7102]},"properties":{"location_name":"Nice","created_at":"2022-06-28"}},{"type":"Feature","geometry":{"type":"Point","coordinates":[13.7768,45.6495]},"properties":{"location_name":"Trieste, TS","created_at":"2022-06-27"}},{"type":"Feature","geometry":{"type":"Point","coordinates":[22.9592,40.6308]},"properties":{"location_name":"Aristotle University of Thessaloniki, Thessaloniki, Greece","body":"<div>Department of Geophysics</div>","created_at":"2022-06-24"}},{"type":"Feature","geometry":{"type":"Point","coordinates":[100.5018,13.7563]},"properties":{"location_name":"Bangkok","body":"<div>navamindradhiraj university</div>","created_at":"2022-06-17"}},{"type":"Feature","geometry":{"type":"Point","coordinates":[-71.9675,-13.532]},"properties":{"location_name":"Cusco, Peru","created_at":"2022-06-16"}},{"type":"Feature","geometry":{"type":"Point","coordinates":[-83.5379,41.6528]},"properties":{"location_name":"Toledo, OH, USA","created_at":"2022-06-10"}},{"type":"Feature","geometry":{"type":"Point","coordinates":[116.4074,39.9042]},"properties":{"location_name":"Beijing, 北京市中国","created_at":"2022-06-10"}},{"type":"Feature","geometry":{"type":"Point","coordinates":[91.663,26.154]},"properties":{"location_name":"Gauhati University, Gopinath Bordoloi Nagar, Jalukbari, Guwahati, Assam","created_at":"2022-06-04"}},{"type":"Feature","geometry":{"type":"Point","coordinates":[-79.638,43.6327]},"properties":{"location_name":"Sensors & Software Inc., Stacey Court, Mississauga, ON","body":"<div>https://www.sensoft.ca/</div>","created_at":"2022-06-03"}},{"type":"Feature","geometry":{"type":"Point","coordinates":[60.8842,29.4519]},"properties":{"location_name":"Zahedan, Sistan and Baluchestan Province","body":"<div><br><br></div>","created_at":"2022-05-30"}},{"type":"Feature","geometry":{"type":"Point","coordinates":[80.238,12.9908]},"properties":{"location_name":"IIT Madras, Indian Institute Of Technology, Chennai, Tamil Nadu","created_at":"2022-05-30"}},{"type":"Feature","geometry":{"type":"Point","coordinates":[75.6661,15.7969]},"properties":{"location_name":"Kuruvinakoppa, Karnataka, India","created_at":"2022-05-28"}},{"type":"Feature","geometry":{"type":"Point","coordinates":[5.3221,60.3913]},"properties":{"location_name":"Bergen","created_at":"2022-05-27"}},{"type":"Feature","geometry":{"type":"Point","coordinates":[102.2501,2.1896]},"properties":{"location_name":"Melaka, Malacca","created_at":"2022-05-27"}},{"type":"Feature","geometry":{"type":"Point","coordinates":[106.8456,-6.2088]},"properties":{"location_name":"Jakarta, Indonesia","created_at":"2022-05-24"}},{"type":"Feature","geometry":{"type":"Point","coordinates":[7.5886,47.5596]},"properties":{"location_name":"Basel","created_at":"2022-05-18"}},{"type":"Feature","geometry":{"type":"Point","coordinates":[5.8505,43.1096]},"properties":{"location_name":"Av. de Bruxelles, La Seyne-sur-Mer, France","created_at":"2022-05-18"}},{"type":"Feature","geometry":{"type":"Point","coordinates":[116.5629,39.7486]},"properties":{"location_name":"Tongzhou, Beijing, 中国","created_at":"2022-05-15"}},{"type":"Feature","geometry":{"type":"Point","coordinates":[116.4074,39.9042]},"properties":{"location_name":"Beijing, 北京市中国","created_at":"2022-05-15"}},{"type":"Feature","geometry":{"type":"Point","coordinates":[4.9041,52.3676]},"properties":{"location_name":"Amsterdam","created_at":"2022-05-12"}},{"type":"Feature","geometry":{"type":"Point","coordinates":[129.7422,62.0397]},"properties":{"location_name":"Yakutsk","created_at":"2022-05-12"}},{"type":"Feature","geometry":{"type":"Point","coordinates":[6.5676,46.519]},"properties":{"location_name":"EPFL, Lausanne","created_at":"2022-05-10"}},{"type":"Feature","geometry":{"type":"Point","coordinates":[114.1787,22.3042]},"properties":{"location_name":"Hong Kong Polytechnic University Shaw Sports Complex, Yuk Choi Road, Hung Hom","created_at":"2022-05-09"}},{"type":"Feature","geometry":{"type":"Point","coordinates":[116.2633,40.1604]},"properties":{"location_name":"中国北京市昌平区","created_at":"2022-05-09"}},{"type":"Feature","geometry":{"type":"Point","coordinates":[-1.2577,51.752]},"properties":{"location_name":"Oxford","created_at":"2022-05-07"}},{"type":"Feature","geometry":{"type":"Point","coordinates":[37.6342,56.196]},"properties":{"location_name":"Московская обл., Россия","created_at":"2022-04-29"}},{"type":"Feature","geometry":{"type":"Point","coordinates":[-8.6291,41.1579]},"properties":{"location_name":"Porto","created_at":"2022-04-26"}},{"type":"Feature","geometry":{"type":"Point","coordinates":[121.4737,31.2304]},"properties":{"location_name":"中国上海市上海","created_at":"2022-04-24"}},{"type":"Feature","geometry":{"type":"Point","coordinates":[10.76,34.7398]},"properties":{"location_name":"Sfax, Tunisie","body":"<div>Very useful&nbsp;</div>","created_at":"2022-04-21"}},{"type":"Feature","geometry":{"type":"Point","coordinates":[128.3446,36.1195]},"properties":{"location_name":"Gumi, 경상북도","body":"<div>금오공과대학교</div>","created_at":"2022-04-21"}},{"type":"Feature","geometry":{"type":"Point","coordinates":[-88.7879,43.7844]},"properties":{"location_name":"Wisconsin, USA","created_at":"2022-04-19"}},{"type":"Feature","geometry":{"type":"Point","coordinates":[11.0453,59.9753]},"properties":{"location_name":"ITS Institutt for Teknologisystemer (UiO), Gunnar Randers Vei, Kjeller, Norway","created_at":"2022-04-18"}},{"type":"Feature","geometry":{"type":"Point","coordinates":[114.0596,22.5429]},"properties":{"location_name":"Shenzhen, Guangdong Province","created_at":"2022-04-16"}},{"type":"Feature","geometry":{"type":"Point","coordinates":[9.9876,48.4011]},"properties":{"location_name":"Ulm","body":"<div>Technische Hochschule Ulm</div>","created_at":"2022-04-13"}},{"type":"Feature","geometry":{"type":"Point","coordinates":[126.8526,35.1595]},"properties":{"location_name":"광주광역시","created_at":"2022-04-13"}},{"type":"Feature","geometry":{"type":"Point","coordinates":[32.7845,39.9724]},"properties":{"location_name":"Yeşilevler, 916. Sk. No:2, Yenimahalle/Ankara, Türkiye","body":"<div>EEE</div>","created_at":"2022-04-11"}},{"type":"Feature","geometry":{"type":"Point","coordinates":[-47.0621,-22.8165]},"properties":{"location_name":"Faculdade de Engenharia Civil, Arquitetura e Urbanismo, Unicamp - Rua Saturnino de Brito - Cidade Universitária, Campinas - SP","body":"<div>Laboratório de Investigações Não Destrutivas - LIND&nbsp;</div>","created_at":"2022-04-07"}},{"type":"Feature","geometry":{"type":"Point","coordinates":[-16.936,14.7912]},"properties":{"location_name":"Thies Senegal, Thiès","created_at":"2022-04-07"}},{"type":"Feature","geometry":{"type":"Point","coordinates":[-15.8995,14.8666]},"properties":{"location_name":"Touba, Sénégal","created_at":"2022-04-07"}},{"type":"Feature","geometry":{"type":"Point","coordinates":[-16.9359,14.791]},"properties":{"location_name":"Thies","created_at":"2022-04-07"}},{"type":"Feature","geometry":{"type":"Point","coordinates":[-3.1883,55.9533]},"properties":{"location_name":"Edinburgh","created_at":"2022-04-05"}},{"type":"Feature","geometry":{"type":"Point","coordinates":[-88.2272,40.102]},"properties":{"location_name":"University of Illinois at Urbana-Champaign, Champaign, IL, USA","created_at":"2022-04-01"}},{"type":"Feature","geometry":{"type":"Point","coordinates":[-71.3824,42.4072]},"properties":{"location_name":"Massachusetts, USA","created_at":"2022-03-31"}},{"type":"Feature","geometry":{"type":"Point","coordinates":[10.5931,35.8204]},"properties":{"location_name":"National School of Engineers in Sousse, سوسة","body":"<div>http://www.eniso.rnu.tn/fr/<br><br><br></div>","created_at":"2022-03-31"}},{"type":"Feature","geometry":{"type":"Point","coordinates":[16.3738,48.2082]},"properties":{"location_name":"Vienna, Austria","created_at":"2022-03-30"}},{"type":"Feature","geometry":{"type":"Point","coordinates":[4.8357,45.764]},"properties":{"location_name":"Lyon","created_at":"2022-03-30"}},{"type":"Feature","geometry":{"type":"Point","coordinates":[112.9919,28.1408]},"properties":{"location_name":"中国湖南省长沙市天心区韶山南路中南大学铁道学院","created_at":"2022-03-29"}},{"type":"Feature","geometry":{"type":"Point","coordinates":[-74.5112,40.3026]},"properties":{"location_name":"Cranbury, NJ, USA","created_at":"2022-03-28"}},{"type":"Feature","geometry":{"type":"Point","coordinates":[115.8579,28.682]},"properties":{"location_name":"中国江西省南昌","created_at":"2022-03-28"}},{"type":"Feature","geometry":{"type":"Point","coordinates":[4.6118,50.6681]},"properties":{"location_name":"Louvain-la-Neuve, Ottignies-Louvain-la-Neuve, Belgium","created_at":"2022-03-23"}},{"type":"Feature","geometry":{"type":"Point","coordinates":[120.9605,23.6978]},"properties":{"location_name":"Taiwan","body":"<div>Yeah</div>","created_at":"2022-03-23"}},{"type":"Feature","geometry":{"type":"Point","coordinates":[49.7024,34.1099]},"properties":{"location_name":"Arak, Regione di Markazi, Iran","created_at":"2022-03-22"}},{"type":"Feature","geometry":{"type":"Point","coordinates":[12.515,41.8763]},"properties":{"location_name":"Roma RM, Italia","created_at":"2022-03-22"}},{"type":"Feature","geometry":{"type":"Point","coordinates":[-86.095,38.3137]},"properties":{"location_name":"New Salisbury, IN, USA","created_at":"2022-03-22"}},{"type":"Feature","geometry":{"type":"Point","coordinates":[-2.0938,57.1499]},"properties":{"location_name":"Aberdeen","created_at":"2022-03-21"}},{"type":"Feature","geometry":{"type":"Point","coordinates":[5.3221,60.3913]},"properties":{"location_name":"Bergen","created_at":"2022-03-17"}},{"type":"Feature","geometry":{"type":"Point","coordinates":[6.1592,51.7997]},"properties":{"location_name":"Kleve, Deutschland","created_at":"2022-03-14"}},{"type":"Feature","geometry":{"type":"Point","coordinates":[6.494,52.7378]},"properties":{"location_name":"Edisonstraat 6, AN Hoogeveen, Niederlande","created_at":"2022-03-14"}},{"type":"Feature","geometry":{"type":"Point","coordinates":[31.2117,30.0263]},"properties":{"location_name":"Faculty of Engineering - Cairo University, Cairo University Road, Oula, Giza District","body":"<div>Hussien E. Allam</div>","created_at":"2022-03-12"}},{"type":"Feature","geometry":{"type":"Point","coordinates":[-120.598,35.3464]},"properties":{"location_name":"San Luis Obispo County, CA, USA","created_at":"2022-03-11"}},{"type":"Feature","geometry":{"type":"Point","coordinates":[-7.0926,31.7917]},"properties":{"location_name":"Morocco","created_at":"2022-03-10"}},{"type":"Feature","geometry":{"type":"Point","coordinates":[-106.6504,35.0844]},"properties":{"location_name":"Albuquerque, NM, USA","created_at":"2022-03-09"}},{"type":"Feature","geometry":{"type":"Point","coordinates":[55.4783,25.2868]},"properties":{"location_name":"University of Sharjah - University City Road - Sharjah","created_at":"2022-03-07"}},{"type":"Feature","geometry":{"type":"Point","coordinates":[107.6191,-6.9175]},"properties":{"location_name":"Bandung, Bandung City, West Java","body":"<div>We are here<br><br></div>","created_at":"2022-03-06"}},{"type":"Feature","geometry":{"type":"Point","coordinates":[73.0479,33.6844]},"properties":{"location_name":"Islamabad","body":"<div>Comsian Star</div>","created_at":"2022-03-05"}},{"type":"Feature","geometry":{"type":"Point","coordinates":[119.2965,26.0742]},"properties":{"location_name":"中国福建省福州","created_at":"2022-03-05"}},{"type":"Feature","geometry":{"type":"Point","coordinates":[-3.7193,40.4486]},"properties":{"location_name":"Universidad Politécnica de Madrid, Madrid","body":"<div>Universidad Politécnica de Madrid.&nbsp;<br><br>ETSI de Telecomunicación, Departamento de Matemática Aplicada a las TIC</div>","created_at":"2022-03-02"}},{"type":"Feature","geometry":{"type":"Point","coordinates":[116.4567,39.9453]},"properties":{"location_name":"中国北京市朝阳区","created_at":"2022-03-01"}},{"type":"Feature","geometry":{"type":"Point","coordinates":[-70.6185,-31.5735]},"properties":{"location_name":"Chile","created_at":"2022-02-28"}},{"type":"Feature","geometry":{"type":"Point","coordinates":[32.8217,39.7801]},"properties":{"location_name":"Bahçelievler, Ankara Üniversitesi Gölbaşı Kampüsü, 319. Sokak, Gölbaşı/Ankara","created_at":"2022-02-26"}},{"type":"Feature","geometry":{"type":"Point","coordinates":[77.9023,29.8654]},"properties":{"location_name":"Central Building Research Institute-CBRI, CBRI Colony, Roorkee, Uttarakhand","created_at":"2022-02-25"}},{"type":"Feature","geometry":{"type":"Point","coordinates":[6.8572,51.8441]},"properties":{"location_name":"Borken","created_at":"2022-02-24"}},{"type":"Feature","geometry":{"type":"Point","coordinates":[-96.3344,30.628]},"properties":{"location_name":"College Station, TX, USA","created_at":"2022-02-24"}},{"type":"Feature","geometry":{"type":"Point","coordinates":[-105.3172,39.6333]},"properties":{"location_name":"Evergreen, CO, USA","created_at":"2022-02-24"}},{"type":"Feature","geometry":{"type":"Point","coordinates":[11.3426,44.4949]},"properties":{"location_name":"Bologna, BO","body":"<div>University&nbsp;of Bologna, Department of History and Archeology</div>","created_at":"2022-02-24"}},{"type":"Feature","geometry":{"type":"Point","coordinates":[2.6027,48.8528]},"properties":{"location_name":"Champs-sur-Marne","created_at":"2022-02-24"}},{"type":"Feature","geometry":{"type":"Point","coordinates":[8.5417,47.3769]},"properties":{"location_name":"Zürich","created_at":"2022-02-24"}},{"type":"Feature","geometry":{"type":"Point","coordinates":[32.8597,39.9334]},"properties":{"location_name":"Ankara, Türkiye","created_at":"2022-02-24"}},{"type":"Feature","geometry":{"type":"Point","coordinates":[51.1925,35.7539]},"properties":{"location_name":"Tehran, Gharb Highway, Iran Mall, Iran","created_at":"2022-02-24"}},{"type":"Feature","geometry":{"type":"Point","coordinates":[-0.5406,53.2307]},"properties":{"location_name":"Lincoln","created_at":"2022-02-23"}},{"type":"Feature","geometry":{"type":"Point","coordinates":[62.2861,25.246]},"properties":{"location_name":"Gwadar","created_at":"2022-02-23"}},{"type":"Feature","geometry":{"type":"Point","coordinates":[64.0887,26.9706]},"properties":{"location_name":"Panjgur","created_at":"2022-02-23"}},{"type":"Feature","geometry":{"type":"Point","coordinates":[64.6807,29.3552]},"properties":{"location_name":"Chaghi","created_at":"2022-02-23"}},{"type":"Feature","geometry":{"type":"Point","coordinates":[68.3578,25.396]},"properties":{"location_name":"Hyderabad, Pakistan","created_at":"2022-02-23"}},{"type":"Feature","geometry":{"type":"Point","coordinates":[68.3935,26.2447]},"properties":{"location_name":"Nawabshah","created_at":"2022-02-23"}},{"type":"Feature","geometry":{"type":"Point","coordinates":[68.2028,27.557]},"properties":{"location_name":"Larkana","created_at":"2022-02-23"}},{"type":"Feature","geometry":{"type":"Point","coordinates":[68.8228,27.7244]},"properties":{"location_name":"Sukkur","created_at":"2022-02-23"}},{"type":"Feature","geometry":{"type":"Point","coordinates":[70.2989,28.4212]},"properties":{"location_name":"Rahim Yar Khan","created_at":"2022-02-23"}},{"type":"Feature","geometry":{"type":"Point","coordinates":[71.6911,29.3544]},"properties":{"location_name":"Bahawalpur","created_at":"2022-02-23"}},{"type":"Feature","geometry":{"type":"Point","coordinates":[73.135,31.4504]},"properties":{"location_name":"Faisalabad","created_at":"2022-02-23"}},{"type":"Feature","geometry":{"type":"Point","coordinates":[71.5249,30.1575]},"properties":{"location_name":"Multan","created_at":"2022-02-23"}},{"type":"Feature","geometry":{"type":"Point","coordinates":[74.9832,35.8026]},"properties":{"location_name":"Gilgit-Baltistan","created_at":"2022-02-23"}},{"type":"Feature","geometry":{"type":"Point","coordinates":[66.975,30.1798]},"properties":{"location_name":"Quetta","created_at":"2022-02-23"}},{"type":"Feature","geometry":{"type":"Point","coordinates":[71.5249,34.0151]},"properties":{"location_name":"Peshawar","created_at":"2022-02-23"}},{"type":"Feature","geometry":{"type":"Point","coordinates":[67.0011,24.8607]},"properties":{"location_name":"Karachi","created_at":"2022-02-23"}},{"type":"Feature","geometry":{"type":"Point","coordinates":[74.3587,31.5204]},"properties":{"location_name":"Lahore","created_at":"2022-02-23"}},{"type":"Feature","geometry":{"type":"Point","coordinates":[73.0479,33.6844]},"properties":{"location_name":"Islamabad","created_at":"2022-02-23"}},{"type":"Feature","geometry":{"type":"Point","coordinates":[144.9631,-37.8136]},"properties":{"location_name":"Melbourne 維多利亞省","body":"<div>Monahs University</div>","created_at":"2022-02-22"}},{"type":"Feature","geometry":{"type":"Point","coordinates":[145.135,-37.9145]},"properties":{"location_name":"Monash University Clayton Campus, Wellington Road, Clayton VIC","created_at":"2022-02-22"}},{"type":"Feature","geometry":{"type":"Point","coordinates":[114.2907,30.633]},"properties":{"location_name":"中国湖北省武汉市","created_at":"2022-02-21"}},{"type":"Feature","geometry":{"type":"Point","coordinates":[114.4046,4.614]},"properties":{"location_name":"Belait District, Brunei","created_at":"2022-02-19"}},{"type":"Feature","geometry":{"type":"Point","coordinates":[76.6134,12.3133]},"properties":{"location_name":"JSS Science and Technology University, Mysuru., Campus Roads, University Of Mysore Campus, Mysuru, Karnataka","body":"<div>Amazing Place to learn about FDTD. Help me make a term project, simulated lot of stuff all in all. </div>","created_at":"2022-02-16"}},{"type":"Feature","geometry":{"type":"Point","coordinates":[75.7139,15.3173]},"properties":{"location_name":"Karnataka","body":"<div>bengaluru</div>","created_at":"2022-02-15"}},{"type":"Feature","geometry":{"type":"Point","coordinates":[77.209,28.6139]},"properties":{"location_name":"New Delhi, Delhi","created_at":"2022-02-15"}},{"type":"Feature","geometry":{"type":"Point","coordinates":[12.3873,43.1166]},"properties":{"location_name":"P. Universita, Perugia PG, Italia","body":"<div>Dipartimento di Fisica e Geologia</div>","created_at":"2022-02-15"}},{"type":"Feature","geometry":{"type":"Point","coordinates":[-77.86,40.7934]},"properties":{"location_name":"State College, PA, USA","created_at":"2022-02-14"}},{"type":"Feature","geometry":{"type":"Point","coordinates":[15.5542,38.1937]},"properties":{"location_name":"Messina, ME, Italia","created_at":"2022-02-14"}},{"type":"Feature","geometry":{"type":"Point","coordinates":[16.3738,48.2082]},"properties":{"location_name":"Vienna","body":"<div>Vienna Institute for Archaeological Science, University of Vienna</div>","created_at":"2022-02-14"}},{"type":"Feature","geometry":{"type":"Point","coordinates":[-93.265,44.9778]},"properties":{"location_name":"Minneapolis, MN, USA","created_at":"2022-02-12"}},{"type":"Feature","geometry":{"type":"Point","coordinates":[32.7801,39.8898]},"properties":{"location_name":"Üniversiteler, Middle East Technical University, Dumlupınar Bulvarı, Çankaya/Ankara","created_at":"2022-02-11"}},{"type":"Feature","geometry":{"type":"Point","coordinates":[30.3609,59.9311]},"properties":{"location_name":"Saint Petersburg","created_at":"2022-02-10"}},{"type":"Feature","geometry":{"type":"Point","coordinates":[30.3609,59.9311]},"properties":{"location_name":"Saint Petersburg","body":"<div>Saint Petersburg State University</div>","created_at":"2022-02-09"}},{"type":"Feature","geometry":{"type":"Point","coordinates":[29.0253,41.1056]},"properties":{"location_name":"Maslak, Istanbul Technical University, Sarıyer/İstanbul","body":"<div>Res. Asst. Orhan Apaydın&nbsp;<br>Department of Geophysical Engineering<br>[email removed]<br><br><br><br></div>","created_at":"2022-02-09"}},{"type":"Feature","geometry":{"type":"Point","coordinates":[113.6263,34.8017]},"properties":{"location_name":"中国河南省郑州市惠济区","created_at":"2022-02-09"}},{"type":"Feature","geometry":{"type":"Point","coordinates":[-0.5348,47.4317]},"properties":{"location_name":"Cerema Ouest - Agence d'Angers, Avenue Amiral Chauvin, Les Ponts-de-Cé","created_at":"2022-02-09"}},{"type":"Feature","geometry":{"type":"Point","coordinates":[22.2052,40.5194]},"properties":{"location_name":"Veria, Greece","created_at":"2022-02-08"}},{"type":"Feature","geometry":{"type":"Point","coordinates":[-0.1209,51.5491]},"properties":{"location_name":"North Road, London","created_at":"2022-02-08"}},{"type":"Feature","geometry":{"type":"Point","coordinates":[-8.7207,42.2406]},"properties":{"location_name":"Vigo, Spain","body":"<div>University of Vigo</div>","created_at":"2022-02-08"}},{"type":"Feature","geometry":{"type":"Point","coordinates":[14.2681,40.8518]},"properties":{"location_name":"Napoli, NA","created_at":"2022-02-05"}},{"type":"Feature","geometry":{"type":"Point","coordinates":[2.588,48.8411]},"properties":{"location_name":"École Nationale des Ponts et Chaussées, Boulevard Copernic, Champs-sur-Marne","created_at":"2022-02-04"}},{"type":"Feature","geometry":{"type":"Point","coordinates":[34.8516,31.0461]},"properties":{"location_name":"Israel","created_at":"2022-02-04"}},{"type":"Feature","geometry":{"type":"Point","coordinates":[-46.7339,-23.5596]},"properties":{"location_name":"IAG - Instituto de Astronomia, Geofísica e Ciências Atmosféricas - Rua do Matão - Butantã, São Paulo - SP","body":"<div>Equipe de Geofísica Aplicada do Instituto de Astronomia, Geofísica e Ciências Atmosféricas da Universidade de São Paulo.<br>Obrigado equipe <em>gprMax</em> pelo software incrível!</div>","created_at":"2022-02-04"}},{"type":"Feature","geometry":{"type":"Point","coordinates":[120.276,36.4339]},"properties":{"location_name":"中国山东省青岛市","created_at":"2022-02-02"}},{"type":"Feature","geometry":{"type":"Point","coordinates":[-35.2,-5.7842]},"properties":{"location_name":"Natal, RN","body":"<div>Department of Geophysics, Federal University of Rio Grande do Norte (UFRN)</div>","created_at":"2022-02-02"}},{"type":"Feature","geometry":{"type":"Point","coordinates":[12.5808,55.6878]},"properties":{"location_name":"Øster Voldgade, København","body":"<div>Department of Geoscience and Natural Resource Management</div>","created_at":"2022-02-02"}},{"type":"Feature","geometry":{"type":"Point","coordinates":[-104.9903,39.7392]},"properties":{"location_name":"Denver, CO, USA","created_at":"2022-02-01"}},{"type":"Feature","geometry":{"type":"Point","coordinates":[29.9408,40.7654]},"properties":{"location_name":"Kocaeli, İzmit/Kocaeli","body":"<div>Department of Geophysical Engineering</div>","created_at":"2022-02-01"}},{"type":"Feature","geometry":{"type":"Point","coordinates":[28.9784,41.0082]},"properties":{"location_name":"İstanbul","body":"<div>Gebze&nbsp;Technical University</div>","created_at":"2022-02-01"}},{"type":"Feature","geometry":{"type":"Point","coordinates":[-1.5716,55.0042]},"properties":{"location_name":"Northumbria University Newcastle, Newcastle upon Tyne","body":"<div>One of the homes of gprMax!</div>","created_at":"2022-02-01"}},{"type":"Feature","geometry":{"type":"Point","coordinates":[-3.173,55.9223]},"properties":{"location_name":"Alexander Graham Bell Building, Edinburgh","body":"<div>&nbsp;</div>","created_at":"2021-09-18"}},{"type":"Feature","geometry":{"type":"Point","coordinates":[118.1572,39.6733]},"properties":{"location_name":"唐山学院, 卫国北路, 街道办事处, 高新区街道, 唐山高新技术产业开发区, 路北区, 唐山市, 河北省, 中国","created_at":"2026-08-07"}},{"type":"Feature","geometry":{"type":"Point","coordinates":[38.7627,9.0377]},"properties":{"location_name":"Amist Kilo, አራት ኪሎ, አዲስ አበባ, Arada, ኢትዮጵያ","body":"Addis Ababa institute of Technology - Ground Penetrating Radar Simulation for Estimating Track Bed Thickness and Material Characterization.","created_at":"2026-08-07"}},{"type":"Feature","geometry":{"type":"Point","coordinates":[-5.6627,43.5449]},"properties":{"location_name":"Gijón / Xixón, Asturias / Asturies, España","body":"University of Oviedo - GPRMax for subsurface imaging","created_at":"2026-08-09"}},{"type":"Feature","geometry":{"type":"Point","coordinates":[-57.9538,-34.9207]},"properties":{"location_name":"La Plata, Partido de La Plata, Buenos Aires, Argentina","body":"Facultad de Ciencias Astronómicas y Geofísicas","created_at":"2026-08-11"}},{"type":"Feature","geometry":{"type":"Point","coordinates":[34.5311,36.7861]},"properties":{"location_name":"Mersin Üniversitesi Çiftlikköy Merkez Kampüsü, Mimar Sinan Caddesi, Çiftlikköy Mahallesi, Yenişehir, Mersin, Akdeniz Böl","created_at":"2026-08-12"}},{"type":"Feature","geometry":{"type":"Point","coordinates":[90.1215,26.4912]},"properties":{"location_name":"Kokrajhar, Assam, India","created_at":"2026-08-24"}},{"type":"Feature","geometry":{"type":"Point","coordinates":[138.6823,-34.812]},"properties":{"location_name":"Modbury Heights, South Australia, Australia","created_at":"2026-08-25"}},{"type":"Feature","geometry":{"type":"Point","coordinates":[-1.6096,54.9788]},"properties":{"location_name":"Northumbria University, Sandyford Road, Haymarket, Newcastle upon Tyne, Tyne and Wear, North East, England","created_at":"2026-08-28"}}]}
